<?xml version='1.0' encoding='UTF-8'?>
<osm version="0.6" generator="osmfilter 1.4.4">
	<bounds minlat="41.9053" minlon="21.2537" maxlat="42.088" maxlon="21.6959"/>
	<node id="309894643" lat="41.9953933" lon="21.4315704" version="12" timestamp="2019-03-23T20:42:37Z" changeset="68454789" uid="9451067" user="b-jazz-bot">
		<tag k="addr:city" v="Скопје"/>
		<tag k="addr:postcode" v="1000"/>
		<tag k="addr:street" v="Плоштад Македонија"/>
		<tag k="alt_name" v="Дал Мет Фу"/>
		<tag k="amenity" v="restaurant"/>
		<tag k="cuisine" v="italian"/>
		<tag k="int_name" v="Pelister"/>
		<tag k="name" v="Пелистер"/>
		<tag k="name:en" v="Pelister"/>
		<tag k="opening_hours" v="Mo-Th 07:00-00:00; Fr-Sa 07:00-01:00; Su 10:30-00:00"/>
		<tag k="website" v="https://www.pelisterhotel.com.mk/"/>
		<tag k="wheelchair" v="yes"/>
		<tag k="wheelchair:description" v="Toilet not accessible"/>
	</node>
	<node id="411006922" lat="41.9947432" lon="21.4140669" version="6" timestamp="2016-04-09T20:05:26Z" changeset="38437093" uid="344903" user="Toyota_79">
		<tag k="amenity" v="restaurant"/>
		<tag k="name" v="Интермецо"/>
	</node>
	<node id="429175192" lat="41.9768256" lon="21.4438183" version="6" timestamp="2014-05-29T16:53:17Z" changeset="22622353" uid="2091263" user="shakce">
		<tag k="amenity" v="restaurant"/>
		<tag k="name" v="Журнал"/>
	</node>
	<node id="445422613" lat="42.0072516" lon="21.4871217" version="5" timestamp="2018-05-09T12:26:27Z" changeset="58818285" uid="131662" user="borces">
		<tag k="amenity" v="restaurant"/>
		<tag k="cuisine" v="steak_house"/>
		<tag k="name" v="Hunter’s Lodge “Kamnik”"/>
		<tag k="website" v="http://www.kamnik.com.mk/"/>
	</node>
	<node id="459668143" lat="42.0047876" lon="21.4307036" version="3" timestamp="2012-08-16T14:52:32Z" changeset="12751798" uid="131662" user="borces">
		<tag k="amenity" v="restaurant"/>
		<tag k="name" v="Под Кале"/>
	</node>
	<node id="459668914" lat="41.9943261" lon="21.4342799" version="7" timestamp="2017-09-26T11:16:10Z" changeset="52381954" uid="361707" user="0xF00F">
		<tag k="amenity" v="restaurant"/>
		<tag k="cuisine" v="italian"/>
		<tag k="email" v="contact@restorangino.mk"/>
		<tag k="level" v="1"/>
		<tag k="name" v="Кај Џино"/>
		<tag k="name:en" v="Gino"/>
		<tag k="outdoor_seating" v="yes"/>
		<tag k="phone" v="+389 2 3121109"/>
		<tag k="sells:ice_cream" v="yes"/>
		<tag k="smoking" v="outside"/>
		<tag k="website" v="http://www.restorangino.mk/"/>
	</node>
	<node id="459669063" lat="41.9952456" lon="21.4350117" version="16" timestamp="2019-05-16T13:11:25Z" changeset="70318404" uid="158784" user="bjankuloski">
		<tag k="addr:city" v="Cкoпje"/>
		<tag k="addr:city:en" v="Skopje"/>
		<tag k="addr:country" v="MK"/>
		<tag k="addr:housename" v="Gradski Trgovski Centar Skopje"/>
		<tag k="addr:postcode" v="1000"/>
		<tag k="addr:street" v="Кеј 13 Ноември"/>
		<tag k="addr:street:en" v="Kay 13th November"/>
		<tag k="amenity" v="restaurant"/>
		<tag k="cuisine" v="Latin_American"/>
		<tag k="int_name" v="Plaza de Toros"/>
		<tag k="name" v="Плаза де Торос"/>
	</node>
	<node id="481098096" lat="42.0031464" lon="21.3995191" version="5" timestamp="2018-11-25T10:40:15Z" changeset="64863318" uid="6970734" user="Dekacc">
		<tag k="amenity" v="restaurant"/>
		<tag k="cuisine" v="italian"/>
		<tag k="name" v="Енрико"/>
	</node>
	<node id="577538782" lat="42.0198926" lon="21.4349372" version="1" timestamp="2009-12-02T12:14:40Z" changeset="3271377" uid="204181" user="jokermkd">
		<tag k="amenity" v="restaurant"/>
		<tag k="name" v="Prince"/>
	</node>
	<node id="600905655" lat="42.0028498" lon="21.3926682" version="4" timestamp="2018-12-02T07:28:05Z" changeset="65088484" uid="9143736" user="b9000">
		<tag k="addr:housenumber" v="158а"/>
		<tag k="addr:street" v="Хелсинки"/>
		<tag k="amenity" v="restaurant"/>
		<tag k="name" v="Две капки"/>
		<tag k="name:en" v="Bosphorus Turkish Restaurant"/>
	</node>
	<node id="696669231" lat="41.9869006" lon="21.4368796" version="2" timestamp="2015-10-15T11:24:49Z" changeset="34652461" uid="131662" user="borces">
		<tag k="amenity" v="restaurant"/>
		<tag k="name" v="иВ"/>
		<tag k="name:en" v="iV"/>
	</node>
	<node id="908273433" lat="42.0003099" lon="21.4367576" version="3" timestamp="2015-06-25T15:48:05Z" changeset="32208128" uid="1468248" user="TheBlackMan">
		<tag k="amenity" v="restaurant"/>
		<tag k="cuisine" v="regional"/>
		<tag k="name" v="Туpиcт"/>
		<tag k="name:en" v="Turist"/>
	</node>
	<node id="1092272132" lat="42.0064872" lon="21.3510028" version="2" timestamp="2018-07-31T12:06:22Z" changeset="61227158" uid="131662" user="borces">
		<tag k="amenity" v="restaurant"/>
	</node>
	<node id="1132688809" lat="41.9953819" lon="21.3274583" version="2" timestamp="2011-02-02T20:00:49Z" changeset="7168007" uid="346445" user="Ta2">
		<tag k="amenity" v="restaurant"/>
		<tag k="name" v="River Side"/>
	</node>
	<node id="1371716593" lat="41.9979155" lon="21.4122694" version="2" timestamp="2018-11-24T21:52:44Z" changeset="64854833" uid="6970734" user="Dekacc">
		<tag k="addr:housenumber" v="25"/>
		<tag k="addr:street" v="Рузвелтова"/>
		<tag k="amenity" v="restaurant"/>
		<tag k="name" v="Топаз"/>
	</node>
	<node id="1372568001" lat="42.000855" lon="21.3989291" version="2" timestamp="2011-07-24T16:55:47Z" changeset="8817781" uid="480785" user="BNicovski">
		<tag k="addr:housenumber" v="14"/>
		<tag k="addr:street" v="Варшавска"/>
		<tag k="amenity" v="restaurant"/>
		<tag k="name" v="Веки"/>
	</node>
	<node id="1377184494" lat="42.0013936" lon="21.4960141" version="1" timestamp="2011-07-28T21:40:01Z" changeset="8858712" uid="480785" user="BNicovski">
		<tag k="amenity" v="restaurant"/>
		<tag k="name" v="Велково Меанче"/>
	</node>
	<node id="1378130151" lat="41.9841333" lon="21.4390455" version="1" timestamp="2011-07-30T01:50:07Z" changeset="8868452" uid="480785" user="BNicovski">
		<tag k="amenity" v="restaurant"/>
		<tag k="name" v="Чешма"/>
	</node>
	<node id="1378130158" lat="41.983244" lon="21.4391421" version="1" timestamp="2011-07-30T01:50:07Z" changeset="8868452" uid="480785" user="BNicovski">
		<tag k="amenity" v="restaurant"/>
	</node>
	<node id="1378228324" lat="41.9710708" lon="21.4455687" version="1" timestamp="2011-07-30T03:04:19Z" changeset="8868452" uid="480785" user="BNicovski">
		<tag k="amenity" v="restaurant"/>
		<tag k="name" v="Ресторан Трпеза"/>
	</node>
	<node id="1378228333" lat="41.9787578" lon="21.4385091" version="1" timestamp="2011-07-30T03:04:21Z" changeset="8868452" uid="480785" user="BNicovski">
		<tag k="amenity" v="restaurant"/>
		<tag k="name" v="Ресторан Кум"/>
	</node>
	<node id="1380378665" lat="41.9997295" lon="21.4078483" version="3" timestamp="2017-06-14T11:59:38Z" changeset="49527781" uid="131662" user="borces">
		<tag k="addr:housenumber" v="6"/>
		<tag k="addr:postcode" v="1000"/>
		<tag k="addr:street" v="Римска"/>
		<tag k="amenity" v="restaurant"/>
		<tag k="cuisine" v="burger;regional;breakfast;grill;mediterranean;balkan;chicken;kebab"/>
		<tag k="email" v="dinamic.ksk@gmail.com"/>
		<tag k="internet_access" v="wlan"/>
		<tag k="name" v="Рустикана"/>
		<tag k="name:en" v="Rustikana"/>
		<tag k="opening_hours" v="Mo-Su 10:00-00:00"/>
		<tag k="operator" v="Saso Gligorovski Tate"/>
		<tag k="phone" v="071383382"/>
	</node>
	<node id="1380378702" lat="41.9985008" lon="21.415982" version="3" timestamp="2017-03-30T20:04:18Z" changeset="47304492" uid="344903" user="Toyota_79">
		<tag k="amenity" v="restaurant"/>
		<tag k="name" v="Боеми"/>
	</node>
	<node id="1475328750" lat="42.0464013" lon="21.3462963" version="2" timestamp="2013-07-08T21:23:50Z" changeset="16879734" uid="131662" user="borces">
		<tag k="amenity" v="restaurant"/>
		<tag k="cuisine" v="regional"/>
		<tag k="is_in" v="Volkovo"/>
		<tag k="name" v="Restoran Tomi"/>
	</node>
	<node id="1475384945" lat="42.0455608" lon="21.3469347" version="2" timestamp="2013-07-08T21:23:51Z" changeset="16879734" uid="131662" user="borces">
		<tag k="amenity" v="restaurant"/>
		<tag k="is_in" v="Volkovo"/>
	</node>
	<node id="1475388232" lat="42.0299906" lon="21.3508185" version="4" timestamp="2013-07-08T22:28:49Z" changeset="16880660" uid="131662" user="borces">
		<tag k="amenity" v="restaurant"/>
		<tag k="cuisine" v="regional"/>
		<tag k="name" v="Meraklii"/>
	</node>
	<node id="1475404511" lat="42.0069568" lon="21.3651275" version="2" timestamp="2017-12-20T20:43:19Z" changeset="54797292" uid="6970734" user="Dekacc">
		<tag k="amenity" v="restaurant"/>
	</node>
	<node id="1535266560" lat="41.9782792" lon="21.4820381" version="2" timestamp="2017-08-26T20:40:05Z" changeset="51468066" uid="3897394" user="thexfiles123">
		<tag k="amenity" v="restaurant"/>
		<tag k="name" v="Ресторан Рагуза 919"/>
		<tag k="name:en" v="Restaurant Ragusa 919"/>
	</node>
	<node id="1577483516" lat="42.0035286" lon="21.3975417" version="5" timestamp="2018-01-11T17:26:52Z" changeset="55358280" uid="6970734" user="Dekacc">
		<tag k="alt_name" v="Старо буре"/>
		<tag k="amenity" v="restaurant"/>
		<tag k="cuisine" v="international"/>
		<tag k="int_name" v="Staro Bure"/>
		<tag k="name" v="Старо Буре"/>
	</node>
	<node id="1577485951" lat="42.0065185" lon="21.3741187" version="2" timestamp="2018-07-19T12:39:31Z" changeset="60870642" uid="64557" user="qpeso">
		<tag k="alt_name" v="Кај 62"/>
		<tag k="amenity" v="restaurant"/>
		<tag k="cuisine" v="regional"/>
		<tag k="int_name" v="At 62"/>
		<tag k="name" v="62"/>
	</node>
	<node id="1676857177" lat="41.9843967" lon="21.4871492" version="4" timestamp="2015-10-20T23:51:52Z" changeset="34767590" uid="3324304" user="Wazaaaaap">
		<tag k="amenity" v="restaurant"/>
		<tag k="cuisine" v="fish"/>
		<tag k="name" v="Рибен ресторан Рибар (Одисеја)"/>
	</node>
	<node id="1734513473" lat="42.0066455" lon="21.3337137" version="1" timestamp="2012-04-28T20:53:04Z" changeset="11443269" uid="541515" user="bobimkd">
		<tag k="amenity" v="restaurant"/>
	</node>
	<node id="1734513478" lat="42.0073873" lon="21.3362989" version="1" timestamp="2012-04-28T20:53:04Z" changeset="11443269" uid="541515" user="bobimkd">
		<tag k="amenity" v="restaurant"/>
	</node>
	<node id="1734530400" lat="42.0067805" lon="21.3651314" version="2" timestamp="2017-12-20T20:43:19Z" changeset="54797292" uid="6970734" user="Dekacc">
		<tag k="amenity" v="restaurant"/>
	</node>
	<node id="1747649203" lat="41.9946274" lon="21.4151525" version="2" timestamp="2020-09-16T19:47:27Z" changeset="91005096" uid="8525987" user="Anoesis">
		<tag k="amenity" v="restaurant"/>
		<tag k="name" v="Крчма"/>
	</node>
	<node id="1748017584" lat="41.9904847" lon="21.4204907" version="3" timestamp="2015-04-28T13:26:50Z" changeset="30581469" uid="678915" user="dominator7">
		<tag k="addr:city" v="Скопје"/>
		<tag k="amenity" v="restaurant"/>
		<tag k="cuisine" v="regional"/>
		<tag k="name" v="Marana"/>
		<tag k="takeaway" v="yes"/>
	</node>
	<node id="1751563134" lat="41.9947645" lon="21.4245254" version="7" timestamp="2019-05-11T16:08:18Z" changeset="70141270" uid="361707" user="0xF00F">
		<tag k="addr:city" v="Cкoпje"/>
		<tag k="addr:city:en" v="Skopje"/>
		<tag k="addr:country" v="MK"/>
		<tag k="addr:housenumber" v="66"/>
		<tag k="addr:street" v="Булевар Климент Охридски"/>
		<tag k="addr:street:en" v="Kliment Ohridski Boulevard"/>
		<tag k="amenity" v="restaurant"/>
		<tag k="cuisine" v="international"/>
		<tag k="internet_access" v="wlan"/>
		<tag k="internet_access:fee" v="no"/>
		<tag k="name" v="Pastel Wine &#38; Dine"/>
		<tag k="name:en" v="Pastel Wine &#38; Dine"/>
		<tag k="opening_hours" v="Mo-Fr 06:30-21:00; Sa 06:30-17:00; Su 06:30-16:00"/>
		<tag k="payment:american_express" v="no"/>
		<tag k="payment:coins" v="yes"/>
		<tag k="payment:maestro" v="yes"/>
		<tag k="payment:mastercard" v="yes"/>
		<tag k="payment:notes" v="yes"/>
		<tag k="payment:visa" v="yes"/>
		<tag k="payment:visa_electron" v="yes"/>
		<tag k="phone" v="+389 2 3214447"/>
		<tag k="smoking" v="outside"/>
		<tag k="takeaway" v="yes"/>
		<tag k="website" v="http://pastel.mk/"/>
		<tag k="wheelchair" v="yes"/>
	</node>
	<node id="1752178268" lat="41.9922398" lon="21.4163482" version="2" timestamp="2012-10-27T18:32:16Z" changeset="13652855" uid="398751" user="arangel">
		<tag k="amenity" v="restaurant"/>
		<tag k="cuisine" v="italian"/>
		<tag k="name" v="511"/>
	</node>
	<node id="1752186795" lat="41.9972291" lon="21.4086601" version="3" timestamp="2020-01-15T15:06:52Z" changeset="79611974" uid="131662" user="borces">
		<tag k="amenity" v="restaurant"/>
		<tag k="name" v="Акорд"/>
		<tag k="name:en" v="Acorde"/>
	</node>
	<node id="1770866402" lat="41.9987097" lon="21.4207447" version="5" timestamp="2017-06-22T16:45:52Z" changeset="49751388" uid="78656" user="Walter Schlögl">
		<tag k="addr:housename" v="libertas"/>
		<tag k="addr:postcode" v="1000"/>
		<tag k="addr:street" v="T.C Bunjakovec prv kat lok 36"/>
		<tag k="amenity" v="restaurant"/>
		<tag k="cuisine" v="pizza"/>
		<tag k="description" v="Coffee&#38;pizza restaurant Libertas"/>
		<tag k="name" v="Пицерија Либертас"/>
		<tag k="phone" v="070567295"/>
	</node>
	<node id="1848409293" lat="41.9775109" lon="21.4456487" version="1" timestamp="2012-08-02T13:28:16Z" changeset="12584846" uid="131662" user="borces">
		<tag k="amenity" v="restaurant"/>
		<tag k="name" v="Ексклузив"/>
	</node>
	<node id="1850422186" lat="42.0523407" lon="21.450695" version="1" timestamp="2012-08-03T19:25:38Z" changeset="12602109" uid="686141" user="dekowow">
		<tag k="amenity" v="restaurant"/>
	</node>
	<node id="1850489869" lat="42.0578588" lon="21.4514149" version="1" timestamp="2012-08-03T20:01:59Z" changeset="12602279" uid="686141" user="dekowow">
		<tag k="amenity" v="restaurant"/>
		<tag k="name" v="Ресторан „Александар“"/>
	</node>
	<node id="1850521527" lat="42.0537503" lon="21.4523161" version="1" timestamp="2012-08-03T20:13:23Z" changeset="12602279" uid="686141" user="dekowow">
		<tag k="amenity" v="restaurant"/>
		<tag k="name" v="Дарвик"/>
	</node>
	<node id="1857486052" lat="42.0019716" lon="21.4647397" version="3" timestamp="2012-08-10T14:31:18Z" changeset="12680814" uid="131662" user="borces">
		<tag k="amenity" v="restaurant"/>
		<tag k="cuisine" v="barbecue"/>
		<tag k="name" v="Тица - Елени"/>
	</node>
	<node id="1860123667" lat="42.0019424" lon="21.4650824" version="1" timestamp="2012-08-10T12:58:10Z" changeset="12679861" uid="131662" user="borces">
		<tag k="amenity" v="restaurant"/>
		<tag k="cuisine" v="barbecue"/>
	</node>
	<node id="1867176020" lat="41.9957062" lon="21.4304595" version="7" timestamp="2019-03-17T10:38:39Z" changeset="68224767" uid="6970734" user="Dekacc">
		<tag k="amenity" v="restaurant"/>
		<tag k="cuisine" v="international"/>
		<tag k="int_name" v="Trend"/>
		<tag k="name" v="Тренд"/>
		<tag k="name:en" v="Trend"/>
		<tag k="wheelchair" v="limited"/>
		<tag k="wheelchair:description" v="Toilet not accessible"/>
	</node>
	<node id="1868812117" lat="41.998742" lon="21.420417" version="5" timestamp="2019-03-01T17:06:51Z" changeset="67693132" uid="4240913" user="Corban8">
		<tag k="amenity" v="restaurant"/>
		<tag k="cuisine" v="barbecue"/>
		<tag k="name" v="Дестан"/>
		<tag k="outdoor_seating" v="yes"/>
		<tag k="smoking" v="separated"/>
	</node>
	<node id="1868812169" lat="42.0034064" lon="21.3995909" version="1" timestamp="2012-08-16T16:40:33Z" changeset="12752876" uid="131662" user="borces">
		<tag k="amenity" v="restaurant"/>
		<tag k="cuisine" v="barbecue"/>
		<tag k="name" v="Ана Кристи"/>
	</node>
	<node id="1868933572" lat="42.0017742" lon="21.3992299" version="1" timestamp="2012-08-16T18:36:48Z" changeset="12753723" uid="131662" user="borces">
		<tag k="amenity" v="restaurant"/>
		<tag k="cuisine" v="macedonian"/>
		<tag k="name" v="Фотка"/>
	</node>
	<node id="1985948203" lat="41.9922245" lon="21.416522" version="1" timestamp="2012-10-27T18:33:16Z" changeset="13652855" uid="398751" user="arangel">
		<tag k="amenity" v="restaurant"/>
		<tag k="cuisine" v="italian"/>
		<tag k="name" v="Balila"/>
	</node>
	<node id="1999633538" lat="41.9913688" lon="21.4280088" version="5" timestamp="2017-12-17T13:10:46Z" changeset="54702866" uid="6970734" user="Dekacc">
		<tag k="amenity" v="restaurant"/>
		<tag k="name" v="Бифиња - Рамстор"/>
		<tag k="name:en" v="Food Court Ramstore"/>
	</node>
	<node id="2105387352" lat="42.0001581" lon="21.4252581" version="4" timestamp="2015-05-07T19:43:30Z" changeset="30883452" uid="1468248" user="TheBlackMan">
		<tag k="addr:city" v="Скопје"/>
		<tag k="addr:city:en" v="Skopje"/>
		<tag k="addr:country" v="MK"/>
		<tag k="addr:housenumber" v="75"/>
		<tag k="addr:street" v="Орце Николов"/>
		<tag k="addr:street:en" v="Orce Nikolov"/>
		<tag k="amenity" v="restaurant"/>
		<tag k="int_name" v="Brukilnski"/>
		<tag k="name" v="Бруклински"/>
		<tag k="name:en" v="Bruklinski"/>
		<tag k="outdoor_seating" v="yes"/>
		<tag k="phone" v="+389 2 6091844"/>
		<tag k="smoking" v="separated"/>
		<tag k="wheelchair" v="limited"/>
	</node>
	<node id="2159535851" lat="41.9953199" lon="21.4347685" version="11" timestamp="2019-05-16T13:11:25Z" changeset="70318404" uid="158784" user="bjankuloski">
		<tag k="addr:city" v="Cкoпje"/>
		<tag k="addr:city:en" v="Skopje"/>
		<tag k="addr:country" v="MK"/>
		<tag k="addr:housename" v="Gradski Trgovski Centar Skopje"/>
		<tag k="addr:housenumber" v="2/4"/>
		<tag k="addr:postcode" v="1000"/>
		<tag k="addr:street" v="Кеј 13 Ноември"/>
		<tag k="addr:street:en" v="Kay 13th November"/>
		<tag k="amenity" v="restaurant"/>
		<tag k="cuisine" v="international"/>
		<tag k="name" v="Бела виста"/>
		<tag k="name:en" v="Bella Vista"/>
		<tag k="opening_hours" v="10:00-24:00, Fr-Sa 10:00-01:00"/>
		<tag k="website" v="www.bellavistaskopje.mk"/>
	</node>
	<node id="2294320125" lat="41.993167" lon="21.4080594" version="2" timestamp="2016-05-11T11:30:24Z" changeset="39239783" uid="131662" user="borces">
		<tag k="amenity" v="restaurant"/>
		<tag k="name" v="Два Елена"/>
		<tag k="name:en" v="Dva Elena"/>
	</node>
	<node id="2322886873" lat="41.9952825" lon="21.4302915" version="2" timestamp="2013-05-28T13:45:06Z" changeset="16324087" uid="131662" user="borces">
		<tag k="amenity" v="restaurant"/>
		<tag k="cuisine" v="regional"/>
		<tag k="int_name" v="Arabeska"/>
		<tag k="name" v="Арабеска"/>
		<tag k="name:en" v="Arabesque"/>
	</node>
	<node id="2324290153" lat="42.003391" lon="21.3323916" version="1" timestamp="2013-05-29T13:20:54Z" changeset="16338039" uid="131662" user="borces">
		<tag k="amenity" v="restaurant"/>
		<tag k="cuisine" v="Macedonian"/>
		<tag k="int_name" v="Oreov Lad"/>
		<tag k="name" v="Ореов Лад"/>
		<tag k="name:en" v="Oreov Lad"/>
	</node>
	<node id="2333163643" lat="41.9502955" lon="21.2993843" version="1" timestamp="2013-06-05T14:25:24Z" changeset="16432925" uid="131662" user="borces">
		<tag k="amenity" v="restaurant"/>
		<tag k="cuisine" v="regional"/>
		<tag k="name" v="Кањон Матка"/>
	</node>
	<node id="2334423406" lat="41.9610975" lon="21.2961533" version="1" timestamp="2013-06-06T13:37:43Z" changeset="16444821" uid="131662" user="borces">
		<tag k="amenity" v="restaurant"/>
		<tag k="cuisine" v="regional"/>
		<tag k="name" v="Манастирска пештера"/>
	</node>
	<node id="2411329687" lat="42.0131608" lon="21.4117168" version="5" timestamp="2019-02-14T12:41:47Z" changeset="67192287" uid="131662" user="borces">
		<tag k="amenity" v="restaurant"/>
		<tag k="cuisine" v="fish"/>
		<tag k="name" v="Фиш"/>
	</node>
	<node id="2580192144" lat="41.9650429" lon="21.4727082" version="4" timestamp="2015-03-28T16:37:17Z" changeset="29808564" uid="16330" user="aluka">
		<tag k="amenity" v="restaurant"/>
		<tag k="int_name" v="Gradina"/>
		<tag k="name" v="Градина"/>
		<tag k="name:en" v="Gradina"/>
	</node>
	<node id="2818872887" lat="42.0051241" lon="21.4145137" version="4" timestamp="2018-04-13T23:55:16Z" changeset="58078993" uid="6970734" user="Dekacc">
		<tag k="addr:city" v="Cкoпje"/>
		<tag k="addr:postcode" v="1000"/>
		<tag k="addr:street" v="Драган Ѓаконовски Шпато"/>
		<tag k="amenity" v="restaurant"/>
		<tag k="int_name" v="Sokače"/>
		<tag k="name" v="Сокаче"/>
		<tag k="name:en" v="Sokache"/>
		<tag k="opening_hours" v="08:00 - 00:00"/>
	</node>
	<node id="2883877896" lat="41.9914536" lon="21.4522729" version="1" timestamp="2014-05-27T17:58:30Z" changeset="22586296" uid="2091263" user="shakce">
		<tag k="amenity" v="restaurant"/>
		<tag k="name" v="Every Day"/>
	</node>
	<node id="3020876346" lat="42.0597023" lon="21.3236858" version="1" timestamp="2014-08-16T19:20:29Z" changeset="24793219" uid="131662" user="borces">
		<tag k="amenity" v="restaurant"/>
		<tag k="int_name" v="Staro Bure"/>
		<tag k="name" v="Старо Буре"/>
		<tag k="name:en" v="Staro Bure"/>
	</node>
	<node id="3101726040" lat="42.0000179" lon="21.4366005" version="2" timestamp="2015-06-25T15:48:03Z" changeset="32208128" uid="1468248" user="TheBlackMan">
		<tag k="addr:city" v="Cкoпje"/>
		<tag k="addr:city:en" v="Skopje"/>
		<tag k="addr:country" v="MK"/>
		<tag k="addr:housename" v="Капан АН"/>
		<tag k="addr:housename:en" v="Kapan AN"/>
		<tag k="addr:housenumber" v="14"/>
		<tag k="addr:postcode" v="1000"/>
		<tag k="addr:street" v="Градиште"/>
		<tag k="addr:street:en" v="Gradiste"/>
		<tag k="amenity" v="restaurant"/>
		<tag k="cuisine" v="regional"/>
		<tag k="email" v="pivnicaan@yahoo.com"/>
		<tag k="internet_access" v="wlan"/>
		<tag k="internet_access:fee" v="no"/>
		<tag k="name" v="Пивница АН"/>
		<tag k="name:en" v="Beerhouse AN"/>
		<tag k="opening_hours" v="Mo-Sa 09:00-24:00; Su 12:00-24:00"/>
		<tag k="outdoor_seating" v="yes"/>
		<tag k="payment:american_express" v="yes"/>
		<tag k="payment:coins" v="yes"/>
		<tag k="payment:mastercard" v="yes"/>
		<tag k="payment:notes" v="yes"/>
		<tag k="payment:visa" v="yes"/>
		<tag k="phone" v="+389 02 321 2111"/>
		<tag k="smoking" v="separated"/>
		<tag k="website" v="http://pivnicaan.mk/"/>
	</node>
	<node id="3341289789" lat="41.9925716" lon="21.4297981" version="4" timestamp="2018-04-26T18:35:28Z" changeset="58453516" uid="6970734" user="Dekacc">
		<tag k="addr:city" v="Скопје"/>
		<tag k="addr:postcode" v="1000"/>
		<tag k="addr:street" v="Македонија"/>
		<tag k="amenity" v="restaurant"/>
		<tag k="name" v="Damaskino"/>
	</node>
	<node id="3415004757" lat="42.0618189" lon="21.4510186" version="1" timestamp="2015-03-23T21:25:20Z" changeset="29689327" uid="2779030" user="FREEZX">
		<tag k="amenity" v="restaurant"/>
	</node>
	<node id="3484100384" lat="41.9917018" lon="21.4231542" version="2" timestamp="2017-01-13T12:23:59Z" changeset="45130577" uid="131662" user="borces">
		<tag k="addr:city" v="Скопје"/>
		<tag k="amenity" v="restaurant"/>
		<tag k="name" v="Dal Fufo - Galija"/>
	</node>
	<node id="3505013893" lat="41.9947506" lon="21.4319604" version="3" timestamp="2018-01-16T17:01:30Z" changeset="55499236" uid="6970734" user="Dekacc">
		<tag k="addr:city" v="Скопје"/>
		<tag k="addr:city:en" v="Skopje"/>
		<tag k="addr:country" v="MK"/>
		<tag k="addr:postcode" v="1000"/>
		<tag k="addr:street" v="11 Октомври"/>
		<tag k="addr:street:en" v="11 Oktomvri"/>
		<tag k="amenity" v="restaurant"/>
		<tag k="cuisine" v="kebab"/>
		<tag k="name" v="Destan"/>
		<tag k="opening_hours" v="08:00-23:00"/>
		<tag k="outdoor_seating" v="yes"/>
		<tag k="smoking" v="separated"/>
		<tag k="wheelchair" v="yes"/>
	</node>
	<node id="3505013993" lat="41.9950911" lon="21.4317257" version="2" timestamp="2019-05-06T12:38:13Z" changeset="69934530" uid="158784" user="bjankuloski">
		<tag k="addr:city" v="Скопје"/>
		<tag k="addr:city:en" v="Skopje"/>
		<tag k="addr:country" v="MK"/>
		<tag k="addr:housenumber" v="2"/>
		<tag k="addr:postcode" v="1000"/>
		<tag k="addr:street" v="11 Октомври"/>
		<tag k="addr:street:en" v="11 Oktomvri"/>
		<tag k="amenity" v="restaurant"/>
		<tag k="cuisine" v="italian"/>
		<tag k="int_name" v="La Terrazza"/>
		<tag k="name" v="Ла Тераца"/>
		<tag k="opening_hours" v="08:00-24:00, Fr-Sa 08:00-01:00"/>
		<tag k="outdoor_seating" v="yes"/>
		<tag k="phone" v="+389 2 3113380"/>
		<tag k="smoking" v="separated"/>
		<tag k="wheelchair" v="yes"/>
	</node>
	<node id="3506695093" lat="42.0045421" lon="21.3910004" version="6" timestamp="2017-12-12T19:49:39Z" changeset="54575867" uid="6970734" user="Dekacc">
		<tag k="amenity" v="restaurant"/>
		<tag k="cuisine" v="italian"/>
		<tag k="name" v="Brooklyn Lounge Bar"/>
		<tag k="opening_hours" v="08:00-00:00; Fr-Sa 08:00-01:00"/>
		<tag k="outdoor_seating" v="yes"/>
		<tag k="smoking" v="separated"/>
		<tag k="wheelchair" v="yes"/>
	</node>
	<node id="3536179577" lat="41.9953743" lon="21.4099065" version="2" timestamp="2016-08-23T12:34:02Z" changeset="41637152" uid="2891942" user="trifun">
		<tag k="addr:postcode" v="1000"/>
		<tag k="addr:street" v="Митрополит Теодосиј Гологанов"/>
		<tag k="amenity" v="restaurant"/>
		<tag k="internet_access" v="wlan"/>
		<tag k="name" v="Носталгија"/>
		<tag k="name:en" v="Nostalgija"/>
		<tag k="phone" v="023060708"/>
	</node>
	<node id="3599403566" lat="41.9979148" lon="21.4020366" version="2" timestamp="2016-04-24T06:50:04Z" changeset="38826980" uid="1468248" user="TheBlackMan">
		<tag k="addr:housenumber" v="1"/>
		<tag k="addr:street" v="Прашка"/>
		<tag k="amenity" v="restaurant"/>
		<tag k="cuisine" v="regional"/>
		<tag k="delivery" v="no"/>
		<tag k="name" v="Кај Маршалот"/>
		<tag k="name:en" v="Kaj Marsalot"/>
		<tag k="smoking" v="outside"/>
		<tag k="takeaway" v="no"/>
	</node>
	<node id="3648714485" lat="42.0062651" lon="21.4063144" version="3" timestamp="2020-10-26T12:11:47Z" changeset="93060647" uid="273212" user="Jakub Trojan">
		<tag k="addr:city" v="Cкoпje"/>
		<tag k="addr:housenumber" v="18"/>
		<tag k="addr:postcode" v="1000"/>
		<tag k="addr:street" v="Булевар 8-ми Септември"/>
		<tag k="amenity" v="restaurant"/>
		<tag k="name" v="Барбакан"/>
		<tag k="name:en" v="Barbakan"/>
		<tag k="opening_hours" v="08:00-01:00"/>
		<tag k="outdoor_seating" v="yes"/>
	</node>
	<node id="3707090923" lat="41.997226" lon="21.4170693" version="1" timestamp="2015-08-20T19:33:55Z" changeset="33469644" uid="834086" user="vpettenati">
		<tag k="amenity" v="restaurant"/>
		<tag k="cuisine" v="regional"/>
		<tag k="name" v="Еснаф кај даре"/>
	</node>
	<node id="3751301960" lat="41.9191256" lon="21.4591155" version="1" timestamp="2015-09-20T09:02:26Z" changeset="34135833" uid="1836257" user="filipgd1">
		<tag k="amenity" v="restaurant"/>
		<tag k="cuisine" v="regional"/>
		<tag k="name" v="Ресторан Бела"/>
		<tag k="name:en" v="Restaurant Bella"/>
	</node>
	<node id="3830455732" lat="41.9824716" lon="21.4725098" version="2" timestamp="2017-05-31T15:36:29Z" changeset="49139786" uid="6100802" user="DarPet">
		<tag k="amenity" v="restaurant"/>
		<tag k="name" v="Pizza Amica"/>
	</node>
	<node id="3832475135" lat="41.9922973" lon="21.4427246" version="1" timestamp="2015-11-12T12:19:15Z" changeset="35259880" uid="131662" user="borces">
		<tag k="amenity" v="restaurant"/>
		<tag k="name" v="Лезет"/>
	</node>
	<node id="3832475147" lat="41.9922032" lon="21.4422139" version="1" timestamp="2015-11-12T12:19:15Z" changeset="35259880" uid="131662" user="borces">
		<tag k="amenity" v="restaurant"/>
		<tag k="name" v="Кај Злате"/>
	</node>
	<node id="3909066219" lat="42.0084895" lon="21.4010837" version="2" timestamp="2015-12-26T15:07:37Z" changeset="36178147" uid="344903" user="Toyota_79">
		<tag k="amenity" v="restaurant"/>
		<tag k="name" v="бед бунар"/>
	</node>
	<node id="3932033588" lat="42.0818924" lon="21.4037096" version="2" timestamp="2016-01-07T16:51:46Z" changeset="36428736" uid="344903" user="Toyota_79">
		<tag k="amenity" v="restaurant"/>
		<tag k="cuisine" v="pizza"/>
		<tag k="name" v="Ribimiluss"/>
	</node>
	<node id="3951819586" lat="41.9748528" lon="21.4093282" version="1" timestamp="2016-01-17T16:37:18Z" changeset="36636690" uid="344903" user="Toyota_79">
		<tag k="amenity" v="restaurant"/>
		<tag k="cuisine" v="regional"/>
		<tag k="internet_access" v="yes"/>
		<tag k="internet_access:fee" v="no"/>
		<tag k="name" v="бимекс"/>
		<tag k="opening_hours" v="9:00-24:00"/>
		<tag k="smoking" v="no"/>
		<tag k="wheelchair" v="limited"/>
	</node>
	<node id="4004645106" lat="41.9957324" lon="21.4301301" version="3" timestamp="2019-05-06T12:38:13Z" changeset="69934530" uid="158784" user="bjankuloski">
		<tag k="addr:city" v="Cкoпje"/>
		<tag k="addr:country" v="MK"/>
		<tag k="addr:housenumber" v="3"/>
		<tag k="addr:postcode" v="1000"/>
		<tag k="addr:street" v="Максим Горки"/>
		<tag k="addr:street:en" v="Maksim Gorki"/>
		<tag k="amenity" v="restaurant"/>
		<tag k="cuisine" v="chinese"/>
		<tag k="email" v="reservation@pekinggarden.mk"/>
		<tag k="int_name" v="Peking Garden"/>
		<tag k="name" v="Пекинг Гарден"/>
		<tag k="opening_hours" v="Mo-Sa 11:00-24:00; Su 12:00-23:00"/>
		<tag k="phone" v="+389 2 3221173"/>
		<tag k="website" v="www.pekinggarden.mk"/>
	</node>
	<node id="4016557277" lat="41.9856123" lon="21.4667276" version="2" timestamp="2016-07-12T21:24:35Z" changeset="40699042" uid="3261834" user="Javier Gutiérrez">
		<tag k="addr:city" v="Skopje"/>
		<tag k="addr:country" v="MK"/>
		<tag k="addr:housenumber" v="71A"/>
		<tag k="addr:postcode" v="1000"/>
		<tag k="addr:street" v="Boulevard Jane Sandanski"/>
		<tag k="amenity" v="restaurant"/>
		<tag k="cuisine" v="italian"/>
		<tag k="name" v="Campione lounge Bar"/>
		<tag k="opening_hours" v="Mo-Su 08:00-01:00"/>
		<tag k="operator" v="Campione"/>
		<tag k="phone" v="+389 70 250 261"/>
	</node>
	<node id="4016557278" lat="41.9859376" lon="21.4661426" version="2" timestamp="2016-07-12T21:24:35Z" changeset="40699042" uid="3261834" user="Javier Gutiérrez">
		<tag k="addr:city" v="Skopje"/>
		<tag k="addr:country" v="MK"/>
		<tag k="addr:housenumber" v="71A"/>
		<tag k="addr:postcode" v="1000"/>
		<tag k="addr:street" v="Boulevard Jane Sandanski"/>
		<tag k="amenity" v="restaurant"/>
		<tag k="cuisine" v="french"/>
		<tag k="name" v="DejaVu Lounge"/>
		<tag k="opening_hours" v="Mo-Su 08:00-01:00"/>
		<tag k="operator" v="DejaVu"/>
	</node>
	<node id="4101107990" lat="41.9871974" lon="21.4365756" version="1" timestamp="2016-04-06T04:58:25Z" changeset="38338893" uid="3781941" user="Luka Madic">
		<tag k="addr:street" v="Јужен Булевар"/>
		<tag k="amenity" v="restaurant"/>
		<tag k="internet_access" v="wlan"/>
		<tag k="name" v="Makedonska sofra"/>
		<tag k="opening_hours" v="Mo-Sa 08:00-01:00"/>
		<tag k="phone" v="078929010"/>
	</node>
	<node id="4126731965" lat="41.9973163" lon="21.434577" version="1" timestamp="2016-04-16T17:47:44Z" changeset="38628030" uid="1468248" user="TheBlackMan">
		<tag k="amenity" v="restaurant"/>
		<tag k="cuisine" v="international"/>
		<tag k="name" v="Sky ресторанот"/>
		<tag k="name:en" v="Sky Restaurant"/>
		<tag k="operator" v="Hotel Stone Bridge"/>
	</node>
	<node id="4149490289" lat="41.9933026" lon="21.4300742" version="2" timestamp="2018-04-26T18:35:26Z" changeset="58453516" uid="6970734" user="Dekacc">
		<tag k="addr:city" v="Скопје"/>
		<tag k="addr:housenumber" v="11"/>
		<tag k="addr:postcode" v="1000"/>
		<tag k="addr:street" v="Македонија"/>
		<tag k="amenity" v="restaurant"/>
		<tag k="cuisine" v="mexican"/>
		<tag k="email" v="info@amigos.com.mk"/>
		<tag k="name" v="Amigos Мексиканска Кантина"/>
		<tag k="name:en" v="Amigos Mexican Cantina"/>
		<tag k="outdoor_seating" v="yes"/>
		<tag k="phone" v="+389 71 230314"/>
		<tag k="smoking" v="outside"/>
		<tag k="takeaway" v="yes"/>
		<tag k="website" v="http://www.amigos.com.mk/"/>
		<tag k="wheelchair" v="yes"/>
	</node>
	<node id="4195733217" lat="41.9955972" lon="21.4338587" version="6" timestamp="2019-05-16T13:11:24Z" changeset="70318404" uid="158784" user="bjankuloski">
		<tag k="addr:city" v="Cкoпje"/>
		<tag k="addr:city:en" v="Skopje"/>
		<tag k="addr:country" v="MK"/>
		<tag k="addr:housename" v="Gradski Trgovski Centar Skopje"/>
		<tag k="addr:postcode" v="1000"/>
		<tag k="addr:street" v="Кеј 13 Ноември"/>
		<tag k="addr:street:en" v="Kay 13th November"/>
		<tag k="amenity" v="restaurant"/>
		<tag k="cuisine" v="international"/>
		<tag k="name" v="Соул кичен"/>
		<tag k="name:en" v="Soul-Kitchen"/>
		<tag k="operator" v="Soul-Kitchen"/>
		<tag k="outdoor_seating" v="yes"/>
		<tag k="smoking" v="outside"/>
	</node>
	<node id="4239053639" lat="42.0229923" lon="21.4307185" version="2" timestamp="2017-02-22T19:28:38Z" changeset="46316775" uid="4357003" user="Jessica Doanes">
		<tag k="amenity" v="restaurant"/>
		<tag k="capacity" v="600"/>
		<tag k="name" v="Beta"/>
	</node>
	<node id="4253210327" lat="41.9495659" lon="21.4212497" version="1" timestamp="2016-06-19T18:14:49Z" changeset="40141344" uid="1836257" user="filipgd1">
		<tag k="amenity" v="restaurant"/>
		<tag k="name" v="Мулино Гарден"/>
	</node>
	<node id="4275843195" lat="41.9969599" lon="21.4160063" version="1" timestamp="2016-07-01T15:17:24Z" changeset="40419745" uid="131662" user="borces">
		<tag k="amenity" v="restaurant"/>
		<tag k="name" v="Лавче"/>
	</node>
	<node id="4292369647" lat="41.9371686" lon="21.6186125" version="3" timestamp="2019-02-19T22:46:05Z" changeset="67370738" uid="9414390" user="Gr8fulDead">
		<tag k="amenity" v="restaurant"/>
		<tag k="cuisine" v="chicken;kebab;grill;local;balkan"/>
		<tag k="internet_access" v="wlan"/>
		<tag k="name" v="Kaj Dzek"/>
	</node>
	<node id="4302211290" lat="42.0030463" lon="21.4002154" version="2" timestamp="2017-11-28T13:43:34Z" changeset="54149559" uid="6970734" user="Dekacc">
		<tag k="amenity" v="restaurant"/>
		<tag k="cuisine" v="fish"/>
		<tag k="name" v="Бабе"/>
	</node>
	<node id="4318400296" lat="41.9915744" lon="21.4655483" version="1" timestamp="2016-07-24T15:55:20Z" changeset="40993754" uid="4060387" user="Dino Dimitrievski">
		<tag k="addr:housenumber" v="24"/>
		<tag k="addr:street" v="Булевар АСНОМ"/>
		<tag k="amenity" v="restaurant"/>
		<tag k="name" v="Златна вилушка"/>
	</node>
	<node id="4327921318" lat="42.0034137" lon="21.3986642" version="2" timestamp="2018-01-11T17:26:53Z" changeset="55358280" uid="6970734" user="Dekacc">
		<tag k="amenity" v="restaurant"/>
		<tag k="cuisine" v="thai"/>
		<tag k="name" v="Thong Thai"/>
		<tag k="opening_hours" v="Sa-Su 10:00-01:00"/>
		<tag k="operator" v="Thong Thai"/>
		<tag k="payment:debit_cards" v="no"/>
		<tag k="phone" v="071 661 234"/>
		<tag k="smoking" v="outside"/>
		<tag k="takeaway" v="yes"/>
	</node>
	<node id="4346542839" lat="41.9927317" lon="21.4301208" version="2" timestamp="2018-01-17T00:23:15Z" changeset="55508620" uid="6970734" user="Dekacc">
		<tag k="amenity" v="restaurant"/>
		<tag k="internet_access" v="wlan"/>
		<tag k="name" v="Lounge Bar &#38; Restaurant &#34;Square 21&#34;"/>
	</node>
	<node id="4355675606" lat="41.9788465" lon="21.4826074" version="1" timestamp="2016-08-18T14:14:49Z" changeset="41534514" uid="4437004" user="Aleksandar Novkovski">
		<tag k="amenity" v="restaurant"/>
		<tag k="name" v="Ресторан Златник"/>
	</node>
	<node id="4386326331" lat="41.9815585" lon="21.4559701" version="1" timestamp="2016-09-05T21:48:02Z" changeset="41942209" uid="4533960" user="Beta-7">
		<tag k="amenity" v="restaurant"/>
		<tag k="cuisine" v="mixed"/>
		<tag k="delivery" v="no"/>
		<tag k="name" v="Пошта"/>
	</node>
	<node id="4406532855" lat="41.9953546" lon="21.3679919" version="1" timestamp="2016-09-18T08:32:23Z" changeset="42241891" uid="1836257" user="filipgd1">
		<tag k="amenity" v="restaurant"/>
		<tag k="cuisine" v="local"/>
		<tag k="name" v="Вила Веранда"/>
		<tag k="name:en" v="Vila Veranda"/>
		<tag k="smoking" v="outside"/>
	</node>
	<node id="4407370494" lat="41.9883207" lon="21.4520843" version="1" timestamp="2016-09-18T21:53:18Z" changeset="42257263" uid="4597945" user="Nikola_Hristovski">
		<tag k="amenity" v="restaurant"/>
		<tag k="internet_access" v="wlan"/>
		<tag k="name" v="еквестријан"/>
		<tag k="name:en" v="equestrian"/>
		<tag k="name:mk" v="еквестријан"/>
	</node>
	<node id="4436518191" lat="41.9996618" lon="21.4362461" version="2" timestamp="2016-10-10T14:32:01Z" changeset="42778759" uid="4669141" user="Jing Yong">
		<tag k="amenity" v="restaurant"/>
		<tag k="name" v="Kaj Serdarot"/>
		<tag k="name:mk" v="Kaj Cerdarot"/>
	</node>
	<node id="4436534289" lat="41.9996701" lon="21.436081" version="1" timestamp="2016-10-07T17:16:52Z" changeset="42716849" uid="4669141" user="Jing Yong">
		<tag k="amenity" v="restaurant"/>
		<tag k="name" v="Destan"/>
		<tag k="name:mk" v="Destan"/>
	</node>
	<node id="4436534489" lat="41.9994953" lon="21.4355402" version="2" timestamp="2019-05-16T12:44:26Z" changeset="70317238" uid="158784" user="bjankuloski">
		<tag k="amenity" v="restaurant"/>
		<tag k="name" v="Австриска палта"/>
		<tag k="name:en" v="Austrian Palace"/>
		<tag k="name:mk" v="Austrian Palace"/>
	</node>
	<node id="4457471314" lat="41.9864102" lon="21.5888229" version="3" timestamp="2016-10-29T05:52:58Z" changeset="43259913" uid="344903" user="Toyota_79">
		<tag k="amenity" v="restaurant"/>
		<tag k="kitchen" v="local"/>
		<tag k="name" v="Royal Food Zlate"/>
	</node>
	<node id="4459578969" lat="41.9949989" lon="21.4355402" version="2" timestamp="2019-05-16T13:11:25Z" changeset="70318404" uid="158784" user="bjankuloski">
		<tag k="addr:city" v="Cкoпje"/>
		<tag k="addr:city:en" v="Skopje"/>
		<tag k="addr:country" v="MK"/>
		<tag k="addr:housename" v="Gradski Trgovski Centar Skopje"/>
		<tag k="addr:postcode" v="1000"/>
		<tag k="addr:street" v="Кеј 13 Ноември"/>
		<tag k="addr:street:en" v="Kay 13th November"/>
		<tag k="amenity" v="restaurant"/>
		<tag k="cuisine" v="international"/>
		<tag k="int_name" v="Amica"/>
		<tag k="level" v="1"/>
		<tag k="name" v="Амика"/>
	</node>
	<node id="4471884330" lat="42.0059792" lon="21.427293" version="1" timestamp="2016-10-30T21:04:11Z" changeset="43292254" uid="344903" user="Toyota_79">
		<tag k="amenity" v="restaurant"/>
		<tag k="cuisine" v="international;italian;fish"/>
		<tag k="internet_access" v="wlan"/>
		<tag k="internet_access:fee" v="no"/>
		<tag k="name" v="Four"/>
		<tag k="operator" v="Hotel Park Spa"/>
		<tag k="outdoor_seating" v="yes"/>
		<tag k="smoking" v="outside"/>
	</node>
	<node id="4481662566" lat="41.995703" lon="21.4335119" version="4" timestamp="2019-05-16T13:11:24Z" changeset="70318404" uid="158784" user="bjankuloski">
		<tag k="amenity" v="restaurant"/>
		<tag k="cuisine" v="italian"/>
		<tag k="int_name" v="Dion"/>
		<tag k="name" v="Дион"/>
	</node>
	<node id="4491144570" lat="42.0045887" lon="21.3936186" version="2" timestamp="2019-01-22T19:31:52Z" changeset="66548567" uid="6970734" user="Dekacc">
		<tag k="addr:street" v="Никола Русински"/>
		<tag k="amenity" v="restaurant"/>
		<tag k="cuisine" v="regional"/>
		<tag k="name" v="Срна"/>
		<tag k="name:en" v="Srna"/>
		<tag k="smoking" v="outside"/>
	</node>
	<node id="4531682389" lat="41.9959806" lon="21.4021635" version="3" timestamp="2019-05-28T11:17:58Z" changeset="70692649" uid="158784" user="bjankuloski">
		<tag k="addr:housenumber" v="63"/>
		<tag k="addr:postcode" v="1000"/>
		<tag k="addr:street" v="Митрополит Теодосиј Гологанов"/>
		<tag k="amenity" v="restaurant"/>
		<tag k="cuisine" v="burger;regional;ice_cream;grill;crepe;coffee_shop;balkan;pancake;chicken;diner;fish;breakfast;tea;sausage;local;fine_dining;kebab;barbecue"/>
		<tag k="email" v="contact@makedonskakuka.com"/>
		<tag k="internet_access" v="wlan"/>
		<tag k="name" v="Македонска куќа"/>
		<tag k="name:en" v="Macedonian House Restaurant"/>
		<tag k="opening_hours" v="Mo-Su 08:00-00:00"/>
		<tag k="operator" v="Kiro Ilijeski -Kambero"/>
		<tag k="phone" v="023296415"/>
		<tag k="website" v="http://www.makedonskakuka.com"/>
	</node>
	<node id="4552084306" lat="42.0030521" lon="21.4648097" version="2" timestamp="2016-12-13T10:28:34Z" changeset="44368106" uid="4962903" user="VlatkoK">
		<tag k="amenity" v="restaurant"/>
		<tag k="cuisine" v="regional"/>
		<tag k="name" v="Кај Тоше на Ќоше"/>
	</node>
	<node id="4650542892" lat="41.9932328" lon="21.5078989" version="3" timestamp="2017-02-01T04:40:55Z" changeset="45705870" uid="5238505" user="Am89">
		<tag k="addr:street" v="Париска Комуна"/>
		<tag k="amenity" v="restaurant"/>
		<tag k="name" v="Гостилница Софра"/>
		<tag k="name:en" v="Gostilnica Sofra"/>
	</node>
	<node id="4650625589" lat="41.9951884" lon="21.5099084" version="1" timestamp="2017-02-01T04:40:57Z" changeset="45705870" uid="5238505" user="Am89">
		<tag k="amenity" v="restaurant"/>
		<tag k="name" v="Пицерија Кремисимо"/>
		<tag k="name:en" v="Picerija Kremisimo"/>
	</node>
	<node id="4720703993" lat="41.9978436" lon="21.4600445" version="1" timestamp="2017-03-06T18:00:54Z" changeset="46630317" uid="5373812" user="adr picture">
		<tag k="addr:postcode" v="1000"/>
		<tag k="amenity" v="restaurant"/>
		<tag k="name" v="Dojrana Skopje"/>
		<tag k="name:mk" v="Dojrana Skopje"/>
	</node>
	<node id="4740748226" lat="41.9953625" lon="21.6126147" version="1" timestamp="2017-03-17T23:43:05Z" changeset="46944595" uid="5431482" user="Pelikon">
		<tag k="amenity" v="restaurant"/>
		<tag k="name" v="Конак Јазбиње"/>
		<tag k="name:en" v="Jazbinje House"/>
		<tag k="name:mk" v="Конак Јазбиње"/>
	</node>
	<node id="4756328632" lat="41.9932432" lon="21.4295835" version="2" timestamp="2018-04-26T18:35:27Z" changeset="58453516" uid="6970734" user="Dekacc">
		<tag k="amenity" v="restaurant"/>
		<tag k="name" v="GastrotecaSiesta"/>
		<tag k="opening_hours" v="10:00-0:00"/>
		<tag k="website" v="https://www.facebook.com/GastrotecaSiesta/"/>
	</node>
	<node id="4838686622" lat="42.0060914" lon="21.4069546" version="3" timestamp="2020-10-26T12:11:47Z" changeset="93060647" uid="273212" user="Jakub Trojan">
		<tag k="addr:street" v="Булевар 8-ми Септември"/>
		<tag k="amenity" v="restaurant"/>
		<tag k="cuisine" v="regional"/>
		<tag k="name" v="Bonimi"/>
		<tag k="name:en" v="Bonimi"/>
		<tag k="name:mk" v="Bonimi"/>
		<tag k="opening_hours" v="Mo-Su 20:00-24:00"/>
		<tag k="outdoor_seating" v="yes"/>
		<tag k="website" v="https://m.facebook.com/bonimimkd/"/>
	</node>
	<node id="4920962547" lat="42.0038168" lon="21.3878449" version="2" timestamp="2017-12-14T19:52:21Z" changeset="54634414" uid="6970734" user="Dekacc">
		<tag k="amenity" v="restaurant"/>
		<tag k="cuisine" v="pizza"/>
		<tag k="name" v="Domino&#39;s"/>
		<tag k="operator" v="Domino&#39;s"/>
		<tag k="takeaway" v="only"/>
	</node>
	<node id="4935294926" lat="42.0123976" lon="21.4451457" version="1" timestamp="2017-06-25T12:05:09Z" changeset="49812715" uid="5625527" user="Blindjo Blindjo">
		<tag k="amenity" v="restaurant"/>
	</node>
	<node id="4976334922" lat="41.9913259" lon="21.4640869" version="1" timestamp="2017-07-18T00:22:59Z" changeset="50366036" uid="6335770" user="Boban Cvetanovski">
		<tag k="amenity" v="restaurant"/>
		<tag k="name" v="Т&#39;га за југ"/>
		<tag k="name:en" v="T&#39;ga za jug"/>
		<tag k="name:mk" v="Т&#39;га за југ"/>
	</node>
	<node id="4982232721" lat="41.9988648" lon="21.4238693" version="3" timestamp="2019-11-17T15:14:27Z" changeset="77191492" uid="436419" user="wvdp">
		<tag k="amenity" v="restaurant"/>
		<tag k="diet:vegan" v="yes"/>
		<tag k="name:en" v="BistRaw"/>
		<tag k="opening_hours" v="Mo-Fr 12:00-20:00"/>
	</node>
	<node id="4990142138" lat="42.0195979" lon="21.4412533" version="1" timestamp="2017-07-24T13:27:18Z" changeset="50528604" uid="6367846" user="Aleksandar St">
		<tag k="addr:housenumber" v="1"/>
		<tag k="addr:street" v="Ресенска"/>
		<tag k="amenity" v="restaurant"/>
		<tag k="name" v="Бизнис"/>
		<tag k="name:mk" v="Бизнис"/>
	</node>
	<node id="5019758021" lat="42.0039853" lon="21.4280925" version="2" timestamp="2019-03-24T19:31:07Z" changeset="68482023" uid="6970734" user="Dekacc">
		<tag k="amenity" v="restaurant"/>
		<tag k="name" v="Парк"/>
		<tag k="name:en" v="Park"/>
	</node>
	<node id="5033108253" lat="42.0005946" lon="21.4191901" version="2" timestamp="2018-11-25T11:47:58Z" changeset="64864936" uid="6970734" user="Dekacc">
		<tag k="addr:city" v="Cкoпje"/>
		<tag k="addr:housenumber" v="4"/>
		<tag k="addr:postcode" v="1000"/>
		<tag k="addr:street" v="Радњанска"/>
		<tag k="amenity" v="restaurant"/>
		<tag k="capacity" v="100"/>
		<tag k="cuisine" v="burger;coffee_shop;sandwich;ice_cream"/>
		<tag k="name" v="Кантина"/>
		<tag k="opening_hours" v="Monday- Satudray 09:00-24:00"/>
		<tag k="outdoor_seating" v="yes"/>
		<tag k="smoking" v="outside"/>
		<tag k="takeaway" v="yes"/>
	</node>
	<node id="5064700321" lat="42.0353232" lon="21.404415" version="2" timestamp="2020-02-25T11:56:37Z" changeset="81453416" uid="480208" user="Svetle">
		<tag k="addr:city" v="Визбегово"/>
		<tag k="addr:housenumber" v="148"/>
		<tag k="addr:street" v="Ul Качанички пат"/>
		<tag k="amenity" v="restaurant"/>
		<tag k="name" v="Аликас"/>
		<tag k="name:en" v="Alikas"/>
		<tag k="name:mk" v="Аликас"/>
	</node>
	<node id="5072397092" lat="41.9914306" lon="21.4633394" version="1" timestamp="2017-08-31T22:15:42Z" changeset="51629414" uid="6381394" user="Macedon-338BC">
		<tag k="amenity" v="restaurant"/>
		<tag k="name" v="Пицерија Фамилија"/>
		<tag k="name:en" v="Pizza Familija"/>
	</node>
	<node id="5074216083" lat="41.9908973" lon="21.316191" version="1" timestamp="2017-09-01T20:31:13Z" changeset="51655472" uid="3261834" user="Javier Gutiérrez">
		<tag k="amenity" v="restaurant"/>
		<tag k="email" v="contact@erbi.com.mk"/>
		<tag k="name" v="Er &#38; Bi"/>
		<tag k="phone:1" v="+389 71 20 20 01"/>
		<tag k="phone:2" v="+389 71 20 20 02"/>
		<tag k="website" v="www.erbi.com.mk"/>
	</node>
	<node id="5101621121" lat="42.0068376" lon="21.3328887" version="1" timestamp="2017-09-12T18:52:04Z" changeset="51982852" uid="6619423" user="Vullnet Vishko">
		<tag k="addr:postcode" v="1000"/>
		<tag k="addr:street" v="Булевар Ѓорче Петров"/>
		<tag k="amenity" v="restaurant"/>
		<tag k="internet_access" v="wlan"/>
		<tag k="name:en" v="GARDEN"/>
		<tag k="opening_hours" v="Mo-Su 09:00-00:00"/>
		<tag k="phone" v="+389 78 239 711"/>
	</node>
	<node id="5123724239" lat="41.9150979" lon="21.5712443" version="1" timestamp="2017-09-23T06:52:38Z" changeset="52295778" uid="1836257" user="filipgd1">
		<tag k="amenity" v="restaurant"/>
		<tag k="name" v="Грин Вилиџ"/>
		<tag k="name:en" v="Green Village"/>
		<tag k="opening_hours" v="Mo-Su 11:00-23:00"/>
	</node>
	<node id="5131832941" lat="41.9948293" lon="21.4276093" version="1" timestamp="2017-09-26T21:55:23Z" changeset="52398479" uid="361707" user="0xF00F">
		<tag k="addr:city" v="Cкoпje"/>
		<tag k="addr:housenumber" v="7"/>
		<tag k="addr:postcode" v="1000"/>
		<tag k="addr:street" v="Даме Груев"/>
		<tag k="amenity" v="restaurant"/>
		<tag k="cuisine" v="grill"/>
		<tag k="email" v="info@7.mk"/>
		<tag k="name" v="7 Скара Ресторан"/>
		<tag k="name:en" v="7 Grill Restaurant"/>
		<tag k="opening_hours" v="Mo-Th 08:00-24:00; Sa 08:00-01:00"/>
		<tag k="outdoor_seating" v="yes"/>
		<tag k="phone" v="(02) 3 224 000"/>
		<tag k="takeaway" v="yes"/>
		<tag k="website" v="http://7.mk/skara-restoran/"/>
	</node>
	<node id="5160613722" lat="41.9899769" lon="21.4492023" version="1" timestamp="2017-10-11T10:51:59Z" changeset="52820348" uid="6783573" user="Banesito Betinski">
		<tag k="addr:postcode" v="1000"/>
		<tag k="amenity" v="restaurant"/>
		<tag k="internet_access" v="wlan"/>
		<tag k="name" v="Мезе Бар"/>
		<tag k="name:en" v="Meze Bar"/>
		<tag k="opening_hours" v="Mo-Su 08:00-01:00"/>
		<tag k="phone" v="026121214"/>
	</node>
	<node id="5184727125" lat="42.0084679" lon="21.3678533" version="1" timestamp="2017-10-23T21:02:12Z" changeset="53191386" uid="6843941" user="Dimovski Viktor">
		<tag k="addr:housenumber" v="2"/>
		<tag k="addr:postcode" v="1000"/>
		<tag k="addr:street" v="Булевар Ѓорче Петров"/>
		<tag k="amenity" v="restaurant"/>
		<tag k="internet_access" v="wlan"/>
		<tag k="name" v="Ubac"/>
		<tag k="phone" v="072555005"/>
	</node>
	<node id="5224224121" lat="41.9916485" lon="21.4223088" version="1" timestamp="2017-11-12T06:40:03Z" changeset="53705344" uid="6972949" user="Drakcevski Risto">
		<tag k="addr:postcode" v="1000"/>
		<tag k="amenity" v="restaurant"/>
		<tag k="email" v="ristovskidac@yahoo.com"/>
		<tag k="internet_access" v="wlan"/>
		<tag k="name" v="Gostilnica Gurman"/>
		<tag k="name:en" v="guest house Gurman"/>
		<tag k="opening_hours" v="Mo-Su 07:00-22:00"/>
		<tag k="phone" v="023176200"/>
	</node>
	<node id="5246219203" lat="41.9868025" lon="21.4193986" version="1" timestamp="2017-11-24T20:16:11Z" changeset="54059055" uid="155698" user="ibz">
		<tag k="amenity" v="restaurant"/>
		<tag k="cuisine" v="macedonian"/>
		<tag k="name" v="Баба Цана"/>
		<tag k="name:en" v="Baba Cana"/>
	</node>
	<node id="5268700370" lat="42.0044372" lon="21.3931934" version="2" timestamp="2018-01-26T17:10:21Z" changeset="55778979" uid="6970734" user="Dekacc">
		<tag k="addr:city" v="Cкoпje"/>
		<tag k="addr:housenumber" v="15"/>
		<tag k="addr:postcode" v="1000"/>
		<tag k="addr:street" v="Никола Русински"/>
		<tag k="amenity" v="restaurant"/>
		<tag k="cuisine" v="pizza"/>
		<tag k="delivery" v="yes"/>
		<tag k="name" v="Pizza Jakomo"/>
		<tag k="outdoor_seating" v="yes"/>
		<tag k="phone" v="+37976338668;+38978338668"/>
		<tag k="website" v="http://www.pizzajakomo.com/"/>
	</node>
	<node id="5289706561" lat="41.9913338" lon="21.4276864" version="1" timestamp="2017-12-17T13:10:45Z" changeset="54702866" uid="6970734" user="Dekacc">
		<tag k="amenity" v="restaurant"/>
		<tag k="name" v="Star Ocean"/>
	</node>
	<node id="5292130848" lat="42.0005187" lon="21.4149006" version="3" timestamp="2018-04-13T14:33:52Z" changeset="58066445" uid="6970734" user="Dekacc">
		<tag k="amenity" v="restaurant"/>
		<tag k="name" v="Fitness house"/>
	</node>
	<node id="5467884712" lat="41.9837709" lon="21.4808444" version="2" timestamp="2019-03-01T16:12:27Z" changeset="67691325" uid="4240913" user="Corban8">
		<tag k="amenity" v="restaurant"/>
		<tag k="delivery" v="yes"/>
		<tag k="name" v="Segreto Plus"/>
	</node>
	<node id="5548809221" lat="41.9995926" lon="21.4366123" version="3" timestamp="2018-11-01T21:14:32Z" changeset="64093982" uid="4076934" user="Interactiondesigner">
		<tag k="amenity" v="restaurant"/>
		<tag k="cuisine" v="local;barbecue"/>
		<tag k="name" v="кај сердарот"/>
		<tag k="name:en" v="Kaj Serdarot"/>
		<tag k="outdoor_seating" v="yes"/>
	</node>
	<node id="5561692079" lat="41.9729164" lon="21.4565032" version="2" timestamp="2018-04-18T11:23:32Z" changeset="58196401" uid="131662" user="borces">
		<tag k="amenity" v="restaurant"/>
		<tag k="name" v="Тарапана"/>
	</node>
	<node id="5572053321" lat="42.0013292" lon="21.4205747" version="2" timestamp="2018-05-18T10:59:44Z" changeset="59076210" uid="131662" user="borces">
		<tag k="addr:postcode" v="1000"/>
		<tag k="addr:street" v="Живко Чинго"/>
		<tag k="amenity" v="restaurant"/>
		<tag k="cuisine" v="chicken;diner;beef_bowl;american;ice_cream;local;tea;pizza;burger;cake;pasta;french;italian_pizza;seafood;crepe;pancake;sandwich;vegan;coffee_shop;balkan;mediterranean;croatian;fish;kebab;breakfast;grill"/>
		<tag k="internet_access" v="wlan"/>
		<tag k="name" v="Дебар Маало"/>
		<tag k="name:en" v="Debar Maalo"/>
		<tag k="opening_hours" v="Su-Th 08:00-00:30; Fr-Sa 08:00-01:00"/>
		<tag k="phone" v="076219654"/>
	</node>
	<node id="5624670966" lat="42.0023813" lon="21.4235595" version="2" timestamp="2020-04-16T06:50:58Z" changeset="83629134" uid="5359" user="user_5359">
		<tag k="addr:housenumber" v="80"/>
		<tag k="addr:postcode" v="1000"/>
		<tag k="addr:street" v="Булевар Илинден"/>
		<tag k="amenity" v="restaurant"/>
		<tag k="cuisine" v="balkan"/>
		<tag k="email" v="mezebarmcm@gmail.com"/>
		<tag k="internet_access" v="wlan"/>
		<tag k="name" v="МЦМ Мезе Бар"/>
		<tag k="name:en" v="MCM Meze Bar"/>
		<tag k="opening_hours" v="24/7"/>
		<tag k="phone" v="+38970250420"/>
	</node>
	<node id="5624682355" lat="42.0028235" lon="21.4239655" version="1" timestamp="2018-05-17T14:23:51Z" changeset="59052859" uid="131662" user="borces">
		<tag k="amenity" v="restaurant"/>
		<tag k="name" v="Костарика"/>
		<tag k="name:en" v="Kostarika"/>
	</node>
	<node id="5624682356" lat="42.003366" lon="21.4242333" version="2" timestamp="2019-03-24T19:18:32Z" changeset="68481720" uid="6970734" user="Dekacc">
		<tag k="amenity" v="restaurant"/>
		<tag k="name" v="Калабалак"/>
		<tag k="name:en" v="Kalabalak"/>
		<tag k="old_name" v="Скала"/>
	</node>
	<node id="5624682357" lat="42.0028813" lon="21.4240111" version="1" timestamp="2018-05-17T14:23:51Z" changeset="59052859" uid="131662" user="borces">
		<tag k="amenity" v="restaurant"/>
		<tag k="name" v="Старо Скупи"/>
		<tag k="name:en" v="Staro Skupi"/>
	</node>
	<node id="5624682358" lat="42.0030128" lon="21.4240218" version="1" timestamp="2018-05-17T14:23:51Z" changeset="59052859" uid="131662" user="borces">
		<tag k="amenity" v="restaurant"/>
		<tag k="cuisine" v="pizza"/>
		<tag k="name" v="Занзибар"/>
		<tag k="name:en" v="Zanzibar"/>
	</node>
	<node id="5626432520" lat="42.0013712" lon="21.4210921" version="1" timestamp="2018-05-18T10:59:42Z" changeset="59076210" uid="131662" user="borces">
		<tag k="amenity" v="restaurant"/>
		<tag k="name" v="Идадија"/>
		<tag k="name:en" v="Idadija"/>
	</node>
	<node id="5626433431" lat="42.001453" lon="21.4214837" version="1" timestamp="2018-05-18T10:59:42Z" changeset="59076210" uid="131662" user="borces">
		<tag k="amenity" v="restaurant"/>
		<tag k="name" v="Наџак"/>
		<tag k="name:en" v="Nadzak"/>
	</node>
	<node id="5626433457" lat="42.0010941" lon="21.4206632" version="2" timestamp="2019-09-15T08:28:43Z" changeset="74490716" uid="4242580" user="Ppx">
		<tag k="amenity" v="restaurant"/>
		<tag k="name" v="Zing"/>
		<tag k="name:en" v="Fruti Di Mare"/>
	</node>
	<node id="5626433480" lat="42.0007591" lon="21.420049" version="2" timestamp="2019-05-06T08:34:05Z" changeset="69926830" uid="9864829" user="Richie0210">
		<tag k="amenity" v="restaurant"/>
		<tag k="name" v="Дебар Маало"/>
		<tag k="name:en" v="Gostilnica Ilinden"/>
	</node>
	<node id="5626433502" lat="42.0014888" lon="21.4208615" version="1" timestamp="2018-05-18T10:59:43Z" changeset="59076210" uid="131662" user="borces">
		<tag k="amenity" v="restaurant"/>
		<tag k="name" v="Кај Перо"/>
		<tag k="name:en" v="Kaj Pero"/>
	</node>
	<node id="5692608680" lat="41.9990664" lon="21.4236496" version="1" timestamp="2018-06-15T10:35:52Z" changeset="59870841" uid="344903" user="Toyota_79">
		<tag k="amenity" v="restaurant"/>
		<tag k="cuisine" v="kebab"/>
		<tag k="name" v="Gostilnica Estel"/>
		<tag k="operator" v="Estel"/>
		<tag k="outdoor_seating" v="yes"/>
	</node>
	<node id="5770427174" lat="42.0063483" lon="21.3740403" version="1" timestamp="2018-07-19T12:39:31Z" changeset="60870642" uid="64557" user="qpeso">
		<tag k="amenity" v="restaurant"/>
		<tag k="name" v="Aleksandrija"/>
	</node>
	<node id="5789449053" lat="41.9995917" lon="21.4361151" version="1" timestamp="2018-07-27T09:32:49Z" changeset="61114621" uid="4242580" user="Ppx">
		<tag k="amenity" v="restaurant"/>
		<tag k="cuisine" v="local"/>
		<tag k="internet_access" v="wlan"/>
		<tag k="name" v="СНОШТИ МИНАВ"/>
		<tag k="name:en" v="SNOSTI MINAV"/>
	</node>
	<node id="5798861909" lat="41.9392561" lon="21.5161585" version="1" timestamp="2018-07-31T13:19:55Z" changeset="61229861" uid="239981" user="pardus116">
		<tag k="amenity" v="restaurant"/>
	</node>
	<node id="5807750050" lat="41.995288" lon="21.4367281" version="1" timestamp="2018-08-03T18:50:28Z" changeset="61338998" uid="344903" user="Toyota_79">
		<tag k="amenity" v="restaurant"/>
	</node>
	<node id="5813417254" lat="42.0009079" lon="21.4200655" version="1" timestamp="2018-08-06T21:41:29Z" changeset="61416461" uid="6695322" user="Avasovski">
		<tag k="addr:postcode" v="1000"/>
		<tag k="addr:street" v="Живко Чинго"/>
		<tag k="amenity" v="restaurant"/>
		<tag k="cuisine" v="savory_pancakes;german;chicken;diner;american;local;barbecue;tea;fine_dining;cake;pasta;international;french;greek;seafood;fish_and_chips;pancake;sandwich;vegan;coffee_shop;balkan;mediterranean;croatian;ramen;turkish;fish;kebab;grill"/>
		<tag k="internet_access" v="wlan"/>
		<tag k="name" v="Кафана &#34;Дебар Маало&#34;"/>
		<tag k="name:en" v="Kafana &#34;Debar Maalo&#34;"/>
		<tag k="opening_hours" v="Mo-Th 08:00-00:00; Fr-Su 08:00-01:00"/>
		<tag k="phone" v="071 279 660"/>
	</node>
	<node id="5830234866" lat="41.96002" lon="21.2952137" version="1" timestamp="2018-08-13T17:27:45Z" changeset="61633498" uid="8675208" user="Erik Petersen">
		<tag k="amenity" v="restaurant"/>
		<tag k="description" v="The Monastery Cave and Macedonian Cave Restaurants are within 200 meters of each other. Both serve traditional Macedonian dishes"/>
		<tag k="name" v="Fish Grill (Macedonian Cave Restaurant)"/>
		<tag k="opening_hours" v="Mo-Su 09:00-21:00"/>
		<tag k="outdoor_seating" v="yes"/>
	</node>
	<node id="5840484087" lat="42.0031615" lon="21.4001853" version="1" timestamp="2018-08-18T20:34:44Z" changeset="61779625" uid="6769303" user="wincak">
		<tag k="amenity" v="restaurant"/>
		<tag k="cuisine" v="Macedonian"/>
		<tag k="name" v="Буре"/>
	</node>
	<node id="5964767286" lat="41.9600725" lon="21.2953055" version="1" timestamp="2018-10-07T18:43:38Z" changeset="63286718" uid="6066920" user="KorBorNor">
		<tag k="amenity" v="restaurant"/>
		<tag k="name:en" v="Macedonian Cave Restaurant FISH"/>
	</node>
	<node id="6032865286" lat="42.0002786" lon="21.4371953" version="1" timestamp="2018-11-02T21:32:20Z" changeset="64128244" uid="4076934" user="Interactiondesigner">
		<tag k="amenity" v="restaurant"/>
		<tag k="cuisine" v="barbecue;local"/>
		<tag k="name" v="Pçela"/>
	</node>
	<node id="6054048486" lat="42.0021215" lon="21.4378319" version="2" timestamp="2019-09-22T11:33:28Z" changeset="74769899" uid="4242580" user="Ppx">
		<tag k="amenity" v="restaurant"/>
		<tag k="name:en" v="Bratstvo"/>
	</node>
	<node id="6054048499" lat="41.95881" lon="21.2952909" version="1" timestamp="2018-11-12T06:20:56Z" changeset="64393596" uid="9047835" user="YunDi88">
		<tag k="amenity" v="restaurant"/>
	</node>
	<node id="6054048696" lat="42.0037034" lon="21.4154682" version="1" timestamp="2018-11-12T06:19:24Z" changeset="64393596" uid="9047835" user="YunDi88">
		<tag k="amenity" v="restaurant"/>
	</node>
	<node id="6054048700" lat="41.9972228" lon="21.4228991" version="1" timestamp="2018-11-12T06:19:49Z" changeset="64393596" uid="9047835" user="YunDi88">
		<tag k="amenity" v="restaurant"/>
	</node>
	<node id="6054050086" lat="41.9946111" lon="21.4207756" version="1" timestamp="2018-11-12T06:18:40Z" changeset="64393596" uid="9047835" user="YunDi88">
		<tag k="amenity" v="restaurant"/>
	</node>
	<node id="6054050099" lat="41.9947932" lon="21.4135121" version="2" timestamp="2019-09-26T12:21:44Z" changeset="74957474" uid="3935153" user="Ivica Petreski">
		<tag k="amenity" v="restaurant"/>
		<tag k="name" v="Воденица"/>
	</node>
	<node id="6054050786" lat="41.9986877" lon="21.4142348" version="1" timestamp="2018-11-12T06:21:38Z" changeset="64393596" uid="9047835" user="YunDi88">
		<tag k="amenity" v="restaurant"/>
	</node>
	<node id="6102488864" lat="41.9959518" lon="21.4199442" version="1" timestamp="2018-11-29T08:12:26Z" changeset="65000595" uid="2017065" user="Adam Harangozó">
		<tag k="alt_name" v="Gostilnica Frosina"/>
		<tag k="amenity" v="restaurant"/>
		<tag k="cuisine" v="local"/>
		<tag k="name" v="Restoran Frosina"/>
	</node>
	<node id="6145435980" lat="41.9927293" lon="21.4652984" version="1" timestamp="2018-12-18T15:22:39Z" changeset="65583842" uid="131662" user="borces">
		<tag k="amenity" v="restaurant"/>
	</node>
	<node id="6268687385" lat="41.9826324" lon="21.4520444" version="1" timestamp="2019-02-09T21:39:57Z" changeset="67059686" uid="6970734" user="Dekacc">
		<tag k="amenity" v="restaurant"/>
		<tag k="name" v="Gala Kujna"/>
	</node>
	<node id="6275187295" lat="42.0365961" lon="21.4462164" version="1" timestamp="2019-02-12T21:44:26Z" changeset="67144954" uid="9319400" user="Hulk_Maps">
		<tag k="amenity" v="restaurant"/>
		<tag k="name" v="EZO"/>
	</node>
	<node id="6278471769" lat="42.0127048" lon="21.4100468" version="1" timestamp="2019-02-14T12:41:47Z" changeset="67192287" uid="131662" user="borces">
		<tag k="amenity" v="restaurant"/>
		<tag k="name" v="Меана Б Јавор Мрзенци"/>
	</node>
	<node id="6385566985" lat="42.0277395" lon="21.4409393" version="1" timestamp="2019-04-05T12:48:20Z" changeset="68920321" uid="6653150" user="Kushtrim Sylejmani">
		<tag k="amenity" v="restaurant"/>
		<tag k="name:en" v="Restaurant ABC"/>
	</node>
	<node id="6386335236" lat="41.9996644" lon="21.4362086" version="1" timestamp="2019-04-05T18:37:59Z" changeset="68933205" uid="9455916" user="ahapen">
		<tag k="amenity" v="restaurant"/>
		<tag k="name" v="Kaj Гоце"/>
	</node>
	<node id="6405264185" lat="41.9856161" lon="21.4670662" version="1" timestamp="2019-04-14T23:30:05Z" changeset="69216273" uid="9630717" user="Goranga">
		<tag k="addr:postcode" v="1000"/>
		<tag k="amenity" v="restaurant"/>
		<tag k="cuisine" v="pizza"/>
		<tag k="name" v="Пицерија &#34;Дени&#34;"/>
		<tag k="name:en" v="Pizza &#34;Deni&#34;"/>
		<tag k="phone" v="076346201"/>
	</node>
	<node id="6514996385" lat="42.0025666" lon="21.4383067" version="2" timestamp="2019-09-22T11:33:28Z" changeset="74769899" uid="4242580" user="Ppx">
		<tag k="amenity" v="restaurant"/>
		<tag k="internet_access" v="wlan"/>
		<tag k="name:en" v="Kosmos"/>
		<tag k="opening_hours" v="Mo-Su 07:00-22:00"/>
	</node>
	<node id="6586691822" lat="41.9819646" lon="21.4681708" version="1" timestamp="2019-07-03T13:48:48Z" changeset="71861165" uid="10021365" user="LaPizza">
		<tag k="amenity" v="restaurant"/>
		<tag k="name" v="La Pizza"/>
		<tag k="phone" v="072575756"/>
	</node>
	<node id="6781335887" lat="41.999319" lon="21.4360459" version="1" timestamp="2019-09-08T18:39:44Z" changeset="74234134" uid="9108335" user="Yvonlo8">
		<tag k="amenity" v="restaurant"/>
		<tag k="name" v="Kebapčilinica Rio"/>
		<tag k="name:en" v="Grill House Rio"/>
	</node>
	<node id="6781337085" lat="42.0018869" lon="21.4383639" version="1" timestamp="2019-09-08T18:39:44Z" changeset="74234134" uid="9108335" user="Yvonlo8">
		<tag k="amenity" v="restaurant"/>
		<tag k="name:en" v="Gjeltoria Palas"/>
	</node>
	<node id="6788977446" lat="41.9995518" lon="21.4131738" version="1" timestamp="2019-09-11T17:45:23Z" changeset="74366594" uid="154757" user="Tr4sK">
		<tag k="addr:housenumber" v="20"/>
		<tag k="amenity" v="restaurant"/>
		<tag k="name" v="Vega"/>
	</node>
	<node id="6796436088" lat="42.0015097" lon="21.4381319" version="1" timestamp="2019-09-15T08:28:51Z" changeset="74490716" uid="4242580" user="Ppx">
		<tag k="amenity" v="restaurant"/>
		<tag k="name" v="Сараево"/>
		<tag k="name:en" v="Sarajevo"/>
		<tag k="opening_hours" v="Mo-Su 07:30-19:00"/>
	</node>
	<node id="6814231688" lat="42.0006226" lon="21.4364213" version="1" timestamp="2019-09-21T15:31:52Z" changeset="74752372" uid="9047835" user="YunDi88">
		<tag k="amenity" v="restaurant"/>
		<tag k="name" v="Tako mako"/>
	</node>
	<node id="6814231700" lat="42.0003594" lon="21.4372514" version="1" timestamp="2019-09-21T15:32:33Z" changeset="74752372" uid="9047835" user="YunDi88">
		<tag k="amenity" v="restaurant"/>
		<tag k="name" v="Ohrid"/>
	</node>
	<node id="6814231702" lat="41.9969456" lon="21.4285563" version="1" timestamp="2019-09-21T15:32:37Z" changeset="74752372" uid="9047835" user="YunDi88">
		<tag k="amenity" v="restaurant"/>
		<tag k="name" v="Markt kitchen"/>
	</node>
	<node id="6814231793" lat="42.0002543" lon="21.4374652" version="1" timestamp="2019-09-21T15:32:33Z" changeset="74752372" uid="9047835" user="YunDi88">
		<tag k="amenity" v="restaurant"/>
		<tag k="name" v="Sac"/>
	</node>
	<node id="6814236587" lat="42.0019483" lon="21.4224937" version="1" timestamp="2019-09-21T15:31:47Z" changeset="74752372" uid="9047835" user="YunDi88">
		<tag k="amenity" v="restaurant"/>
		<tag k="name" v="Skopsko"/>
	</node>
	<node id="6814236621" lat="42.002112" lon="21.4385882" version="1" timestamp="2019-09-21T15:32:21Z" changeset="74752372" uid="9047835" user="YunDi88">
		<tag k="amenity" v="restaurant"/>
		<tag k="name" v="Palas"/>
	</node>
	<node id="6814245589" lat="42.0017089" lon="21.4219242" version="2" timestamp="2019-12-02T19:01:50Z" changeset="77838965" uid="10517616" user="DemonHyper">
		<tag k="amenity" v="restaurant"/>
		<tag k="name" v="Schpajs"/>
		<tag k="name:mk" v="Шпајз"/>
	</node>
	<node id="6814246691" lat="42.0005272" lon="21.436443" version="1" timestamp="2019-09-21T15:31:51Z" changeset="74752372" uid="9047835" user="YunDi88">
		<tag k="amenity" v="restaurant"/>
		<tag k="name" v="Don Giovanni"/>
	</node>
	<node id="6814246724" lat="41.9999786" lon="21.4373399" version="1" timestamp="2019-09-21T15:32:32Z" changeset="74752372" uid="9047835" user="YunDi88">
		<tag k="amenity" v="restaurant"/>
		<tag k="name" v="Concept"/>
	</node>
	<node id="6815434686" lat="42.0016292" lon="21.4382061" version="1" timestamp="2019-09-22T11:33:29Z" changeset="74769899" uid="4242580" user="Ppx">
		<tag k="amenity" v="restaurant"/>
		<tag k="name:en" v="Restoran Saraj"/>
		<tag k="opening_hours" v="Mo-Su 07:00-02:00"/>
	</node>
	<node id="6815434689" lat="41.9967339" lon="21.4229663" version="1" timestamp="2019-09-22T11:33:32Z" changeset="74769899" uid="4242580" user="Ppx">
		<tag k="amenity" v="restaurant"/>
		<tag k="name:en" v="Toto"/>
	</node>
	<node id="6815434691" lat="41.9971719" lon="21.4086507" version="2" timestamp="2020-01-15T15:06:52Z" changeset="79611974" uid="131662" user="borces">
		<tag k="amenity" v="restaurant"/>
		<tag k="name" v="Млечен Бар"/>
	</node>
	<node id="6815434692" lat="42.002027" lon="21.4384905" version="1" timestamp="2019-09-22T11:33:35Z" changeset="74769899" uid="4242580" user="Ppx">
		<tag k="amenity" v="restaurant"/>
		<tag k="name:en" v="Teteks"/>
	</node>
	<node id="6815454785" lat="41.9945241" lon="21.4244578" version="1" timestamp="2019-09-22T11:33:32Z" changeset="74769899" uid="4242580" user="Ppx">
		<tag k="amenity" v="restaurant"/>
		<tag k="name" v="Букет"/>
	</node>
	<node id="6815918386" lat="41.9963262" lon="21.4243264" version="1" timestamp="2019-09-22T17:48:00Z" changeset="74777891" uid="9047835" user="YunDi88">
		<tag k="amenity" v="restaurant"/>
		<tag k="name" v="Mosh"/>
	</node>
	<node id="6815931392" lat="42.0026188" lon="21.4186405" version="1" timestamp="2019-09-22T17:53:01Z" changeset="74777891" uid="9047835" user="YunDi88">
		<tag k="amenity" v="restaurant"/>
		<tag k="name" v="Metzka"/>
	</node>
	<node id="6821158588" lat="41.9942446" lon="21.4243092" version="1" timestamp="2019-09-24T20:15:13Z" changeset="74876257" uid="9047835" user="YunDi88">
		<tag k="amenity" v="restaurant"/>
		<tag k="name" v="Davidoff"/>
	</node>
	<node id="6821158985" lat="41.9934471" lon="21.430044" version="1" timestamp="2019-09-24T20:15:11Z" changeset="74876257" uid="9047835" user="YunDi88">
		<tag k="amenity" v="restaurant"/>
		<tag k="name" v="Amigos"/>
	</node>
	<node id="6827032731" lat="42.0027517" lon="21.4415279" version="1" timestamp="2019-09-26T12:14:12Z" changeset="74956993" uid="9047835" user="YunDi88">
		<tag k="amenity" v="restaurant"/>
		<tag k="name" v="Pizzeria Bik"/>
	</node>
	<node id="6827032733" lat="42.0011296" lon="21.4380383" version="1" timestamp="2019-09-26T12:14:15Z" changeset="74956993" uid="9047835" user="YunDi88">
		<tag k="amenity" v="restaurant"/>
		<tag k="name" v="Old Balkan"/>
	</node>
	<node id="6827076186" lat="42.0025774" lon="21.4371206" version="1" timestamp="2019-09-26T12:14:20Z" changeset="74956993" uid="9047835" user="YunDi88">
		<tag k="amenity" v="restaurant"/>
		<tag k="name" v="Kursumli An"/>
	</node>
	<node id="6830542186" lat="42.0054082" lon="21.4112093" version="1" timestamp="2019-09-27T11:49:32Z" changeset="75006252" uid="9047835" user="YunDi88">
		<tag k="amenity" v="restaurant"/>
		<tag k="name" v="Kaj chme"/>
	</node>
	<node id="7001354685" lat="42.0030579" lon="21.4009703" version="1" timestamp="2019-11-22T12:11:07Z" changeset="77424591" uid="9497227" user="AnttonC">
		<tag k="amenity" v="restaurant"/>
		<tag k="name" v="Буре лептокарија"/>
		<tag k="name:en" v="Bure Leptokarija"/>
	</node>
	<node id="7027229685" lat="41.993295" lon="21.4352029" version="1" timestamp="2019-12-02T21:19:21Z" changeset="77842814" uid="10517616" user="DemonHyper">
		<tag k="amenity" v="restaurant"/>
		<tag k="name" v="Ресторан Национал"/>
		<tag k="name:en" v="Restaurant National"/>
	</node>
	<node id="7093171485" lat="42.0062237" lon="21.4157772" version="2" timestamp="2020-10-26T12:11:47Z" changeset="93060647" uid="273212" user="Jakub Trojan">
		<tag k="addr:street" v="Булевар Илинден"/>
		<tag k="amenity" v="restaurant"/>
		<tag k="cuisine" v="barbecue;burger;american;breakfast;balkan"/>
		<tag k="internet_access" v="wlan"/>
		<tag k="name" v="Рок Кафана Рустикана 2.0"/>
		<tag k="name:en" v="Rock Kafana Rustikana 2.0"/>
		<tag k="opening_hours" v="Mo-Sa 10:00-24:00"/>
	</node>
	<node id="7130929832" lat="42.0046693" lon="21.4147058" version="1" timestamp="2020-01-14T12:11:36Z" changeset="79563936" uid="7140745" user="MatejMecka">
		<tag k="addr:city" v="Cкoпje"/>
		<tag k="addr:postcode" v="1000"/>
		<tag k="addr:street" v="Орце Николов"/>
		<tag k="air_conditioning" v="yes"/>
		<tag k="amenity" v="restaurant"/>
		<tag k="cuisine" v="international"/>
		<tag k="delivery" v="no"/>
		<tag k="name" v="Скадарлија"/>
		<tag k="outdoor_seating" v="yes"/>
		<tag k="phone" v="02 305 2717"/>
		<tag k="reservation" v="yes"/>
		<tag k="smoking" v="separated"/>
		<tag k="website" v="https://restoran-skadarlija-skopje.business.site/"/>
	</node>
	<node id="7236691788" lat="42.002807" lon="21.331689" version="1" timestamp="2020-02-23T13:08:40Z" changeset="81366265" uid="393359" user="Robot8A">
		<tag k="amenity" v="restaurant"/>
		<tag k="cuisine" v="pizza"/>
	</node>
	<node id="8094057485" lat="41.9974684" lon="21.4097614" version="1" timestamp="2020-11-08T16:03:49Z" changeset="93747945" uid="11849964" user="Velibear">
		<tag k="addr:city" v="Cкoпje"/>
		<tag k="addr:housenumber" v="21"/>
		<tag k="addr:postcode" v="1000"/>
		<tag k="addr:street" v="Атинска"/>
		<tag k="amenity" v="restaurant"/>
		<tag k="name" v="Сидро"/>
	</node>
	<way id="32674255" version="7" timestamp="2017-02-26T19:42:05Z" changeset="46424171" uid="4358750" user="mariegorman">
		<nd ref="367656617"/>
		<nd ref="367656619"/>
		<nd ref="367656621"/>
		<nd ref="367656623"/>
		<nd ref="367656625"/>
		<nd ref="4126731966"/>
		<nd ref="367656617"/>
		<tag k="addr:city" v="Cкoпje"/>
		<tag k="addr:city:en" v="Skopje"/>
		<tag k="addr:country" v="MK"/>
		<tag k="addr:postcode" v="1000"/>
		<tag k="addr:street" v="Васил Ѓоргов"/>
		<tag k="amenity" v="restaurant"/>
		<tag k="building" v="office"/>
		<tag k="building:levels" v="1"/>
		<tag k="name" v="Конструкта"/>
		<tag k="office" v="insurance"/>
	</way>
	<way id="32674402" version="3" timestamp="2019-05-28T11:17:58Z" changeset="70692649" uid="158784" user="bjankuloski">
		<nd ref="367659041"/>
		<nd ref="367659045"/>
		<nd ref="367659051"/>
		<nd ref="367659056"/>
		<nd ref="367659041"/>
		<tag k="addr:city" v="Cкoпje"/>
		<tag k="addr:city:en" v="Skopje"/>
		<tag k="addr:country" v="MK"/>
		<tag k="addr:postcode" v="1000"/>
		<tag k="addr:street" v="Mitropolit Teodosij Gologanov"/>
		<tag k="amenity" v="restaurant"/>
		<tag k="building" v="yes"/>
		<tag k="contact:phone" v="+389 2 3296415"/>
		<tag k="cuisine" v="regional"/>
		<tag k="designation" v="National restaurant"/>
		<tag k="email" v="contact@makedonskakuka.com"/>
		<tag k="name" v="Македонска куќа"/>
		<tag k="name:en" v="Makedonska Kuka"/>
		<tag k="opening_hours" v="08:00-24:00"/>
		<tag k="website" v="http://www.makedonskakuka.com/en/skopje.php"/>
	</way>
	<way id="121390892" version="5" timestamp="2020-01-16T11:06:41Z" changeset="79647248" uid="131662" user="borces">
		<nd ref="1359271237"/>
		<nd ref="2335358701"/>
		<nd ref="1359271233"/>
		<nd ref="1359271955"/>
		<nd ref="1359271237"/>
		<tag k="addr:city" v="Cкoпje"/>
		<tag k="addr:city:en" v="Skopje"/>
		<tag k="addr:country" v="MK"/>
		<tag k="addr:housenumber" v="28"/>
		<tag k="addr:postcode" v="1000"/>
		<tag k="addr:street" v="Митрополит Теодосиј Гологанов"/>
		<tag k="amenity" v="restaurant"/>
		<tag k="building" v="yes"/>
		<tag k="name" v="Ресторан 2 Златника"/>
		<tag k="office" v="insurance"/>
		<tag k="wheelchair" v="limited"/>
	</way>
	<way id="121511379" version="5" timestamp="2017-02-26T18:29:43Z" changeset="46422620" uid="4358750" user="mariegorman">
		<nd ref="1378087148"/>
		<nd ref="1360096515"/>
		<nd ref="1360096565"/>
		<nd ref="2334423428"/>
		<nd ref="1360096558"/>
		<nd ref="1378087148"/>
		<tag k="addr:city" v="Cкoпje"/>
		<tag k="addr:city:en" v="Skopje"/>
		<tag k="addr:country" v="MK"/>
		<tag k="addr:housenumber" v="21"/>
		<tag k="addr:postcode" v="1000"/>
		<tag k="addr:street" v="Дебарца"/>
		<tag k="amenity" v="restaurant"/>
		<tag k="building" v="yes"/>
		<tag k="name" v="Керпич"/>
	</way>
	<way id="121511400" version="4" timestamp="2017-02-26T19:42:07Z" changeset="46424171" uid="4358750" user="mariegorman">
		<nd ref="1360096525"/>
		<nd ref="1360096464"/>
		<nd ref="1360096563"/>
		<nd ref="1577167286"/>
		<nd ref="1360096525"/>
		<tag k="addr:city" v="Cкoпje"/>
		<tag k="addr:city:en" v="Skopje"/>
		<tag k="addr:country" v="MK"/>
		<tag k="addr:housename" v="Дане"/>
		<tag k="addr:housenumber" v="2"/>
		<tag k="addr:postcode" v="1000"/>
		<tag k="addr:street" v="Киро Крстевски Платник"/>
		<tag k="alt_name" v="Дане"/>
		<tag k="amenity" v="restaurant"/>
		<tag k="building" v="yes"/>
		<tag k="cuisine" v="regional"/>
		<tag k="int_name" v="Dane"/>
		<tag k="name" v="Дане"/>
		<tag k="name:en" v="Dane"/>
	</way>
	<way id="121511815" version="4" timestamp="2017-02-26T19:42:07Z" changeset="46424171" uid="4358750" user="mariegorman">
		<nd ref="1360100782"/>
		<nd ref="1360100880"/>
		<nd ref="1360100817"/>
		<nd ref="4304422595"/>
		<nd ref="1360100782"/>
		<tag k="addr:city" v="Cкoпje"/>
		<tag k="addr:city:en" v="Skopje"/>
		<tag k="addr:country" v="MK"/>
		<tag k="addr:housenumber" v="32b"/>
		<tag k="addr:postcode" v="1000"/>
		<tag k="addr:street" v="Митрополит Теодосиј Гологанов"/>
		<tag k="amenity" v="restaurant"/>
		<tag k="building" v="yes"/>
		<tag k="cuisine" v="grill;local"/>
		<tag k="internet_access" v="wlan"/>
		<tag k="name" v="Ка"/>
		<tag k="phone" v="023214350"/>
	</way>
	<way id="121511817" version="4" timestamp="2017-02-26T19:42:07Z" changeset="46424171" uid="4358750" user="mariegorman">
		<nd ref="1747370831"/>
		<nd ref="1360100879"/>
		<nd ref="1360100850"/>
		<nd ref="1360100799"/>
		<nd ref="1747370831"/>
		<tag k="addr:city" v="Cкoпje"/>
		<tag k="addr:city:en" v="Skopje"/>
		<tag k="addr:country" v="MK"/>
		<tag k="addr:postcode" v="1000"/>
		<tag k="amenity" v="restaurant"/>
		<tag k="building" v="yes"/>
		<tag k="cuisine" v="regional"/>
		<tag k="name" v="Ѓезме"/>
	</way>
	<way id="122862785" version="4" timestamp="2017-02-26T18:40:12Z" changeset="46422854" uid="4358750" user="mariegorman">
		<nd ref="1371588475"/>
		<nd ref="1371588471"/>
		<nd ref="444930912"/>
		<nd ref="1371588464"/>
		<nd ref="1371588475"/>
		<tag k="addr:city" v="Cкoпje"/>
		<tag k="addr:city:en" v="Skopje"/>
		<tag k="addr:country" v="MK"/>
		<tag k="addr:postcode" v="1000"/>
		<tag k="addr:street" v="Аминта Трети"/>
		<tag k="addr:street:en" v="Aminta Treti"/>
		<tag k="amenity" v="restaurant"/>
		<tag k="building" v="yes"/>
		<tag k="cuisine" v="pizza"/>
		<tag k="name" v="Мечос"/>
	</way>
	<way id="123273654" version="5" timestamp="2015-07-11T19:03:13Z" changeset="32568965" uid="1468248" user="TheBlackMan">
		<nd ref="1375310278"/>
		<nd ref="1375310294"/>
		<nd ref="1375310198"/>
		<nd ref="1375310291"/>
		<nd ref="1375310218"/>
		<nd ref="1375310266"/>
		<nd ref="1375310286"/>
		<nd ref="1375310250"/>
		<nd ref="1375310240"/>
		<nd ref="1375310205"/>
		<nd ref="1375310228"/>
		<nd ref="1375310196"/>
		<nd ref="1375310301"/>
		<nd ref="1375310256"/>
		<nd ref="1375310211"/>
		<nd ref="1375310278"/>
		<tag k="addr:city" v="Cкoпje"/>
		<tag k="addr:city:en" v="Skopje"/>
		<tag k="addr:country" v="MK"/>
		<tag k="addr:postcode" v="1000"/>
		<tag k="amenity" v="restaurant"/>
		<tag k="building" v="yes"/>
		<tag k="cuisine" v="regional"/>
		<tag k="int_name" v="Sv. Pantelejmon - Klet"/>
		<tag k="layer" v="1"/>
		<tag k="name" v="Св.Пантелејмон - Клет"/>
		<tag k="name:en" v="St. Pantlejmon - Klet"/>
	</way>
	<way id="175441983" version="3" timestamp="2015-07-11T19:00:56Z" changeset="32568965" uid="1468248" user="TheBlackMan">
		<nd ref="1860283536"/>
		<nd ref="1860283392"/>
		<nd ref="1860283431"/>
		<nd ref="1860283367"/>
		<nd ref="1860283536"/>
		<tag k="addr:city" v="Cкoпje"/>
		<tag k="addr:city:en" v="Skopje"/>
		<tag k="addr:country" v="MK"/>
		<tag k="addr:housenumber" v="8"/>
		<tag k="addr:postcode" v="1000"/>
		<tag k="addr:street" v="Трифун Хаџијанев"/>
		<tag k="amenity" v="restaurant"/>
		<tag k="building" v="yes"/>
		<tag k="name" v="Боними"/>
	</way>
	<way id="175463419" version="3" timestamp="2016-04-17T07:46:41Z" changeset="38636866" uid="1468248" user="TheBlackMan">
		<nd ref="1860473057"/>
		<nd ref="1860473042"/>
		<nd ref="1860472968"/>
		<nd ref="1860473010"/>
		<nd ref="1860472988"/>
		<nd ref="1860472995"/>
		<nd ref="1860473087"/>
		<nd ref="1860472978"/>
		<nd ref="1860473057"/>
		<tag k="addr:city" v="Cкoпje"/>
		<tag k="addr:city:en" v="Skopje"/>
		<tag k="addr:country" v="MK"/>
		<tag k="addr:postcode" v="1000"/>
		<tag k="amenity" v="restaurant"/>
		<tag k="building" v="yes"/>
		<tag k="name" v="Дојрана"/>
	</way>
	<way id="176133887" version="3" timestamp="2017-02-26T19:13:45Z" changeset="46423577" uid="4358750" user="mariegorman">
		<nd ref="1866944539"/>
		<nd ref="4471884331"/>
		<nd ref="1866944556"/>
		<nd ref="1866944557"/>
		<nd ref="1866944550"/>
		<nd ref="1866944563"/>
		<nd ref="1866944551"/>
		<nd ref="1866944574"/>
		<nd ref="1866944546"/>
		<nd ref="1866944537"/>
		<nd ref="1866944539"/>
		<tag k="addr:city" v="Cкoпje"/>
		<tag k="addr:city:en" v="Skopje"/>
		<tag k="addr:country" v="MK"/>
		<tag k="addr:postcode" v="1000"/>
		<tag k="amenity" v="restaurant"/>
		<tag k="building" v="yes"/>
	</way>
	<way id="176147491" version="5" timestamp="2019-02-19T19:51:38Z" changeset="67365422" uid="8600365" user="spuddy93">
		<nd ref="1867058167"/>
		<nd ref="1867057890"/>
		<nd ref="1867057578"/>
		<nd ref="1867057892"/>
		<nd ref="1867058167"/>
		<tag k="addr:city" v="Cкoпje"/>
		<tag k="addr:city:en" v="Skopje"/>
		<tag k="addr:country" v="MK"/>
		<tag k="addr:housenumber" v="29"/>
		<tag k="addr:postcode" v="1000"/>
		<tag k="addr:street" v="Аминта Трети"/>
		<tag k="addr:street:en" v="Leninova"/>
		<tag k="amenity" v="restaurant"/>
		<tag k="building" v="apartments"/>
		<tag k="cuisine" v="chinese;thai;japanese;sushi"/>
		<tag k="layer" v="1"/>
		<tag k="name" v="Sushi Ко"/>
		<tag k="name:en" v="Sushico"/>
		<tag k="opening_hours" v="Su-Th 12:00-23:00; Fr-Sa 10:00-00:00"/>
		<tag k="outdoor_seating" v="yes"/>
		<tag k="phone" v="+389 2 3217874"/>
		<tag k="smoking" v="separated"/>
		<tag k="website" v="http://www.sushico.mk"/>
	</way>
	<way id="176154876" version="4" timestamp="2018-12-26T23:07:51Z" changeset="65797627" uid="361707" user="0xF00F">
		<nd ref="1867110660"/>
		<nd ref="1867110657"/>
		<nd ref="5254291268"/>
		<nd ref="1867110668"/>
		<nd ref="1867110691"/>
		<nd ref="1867110696"/>
		<nd ref="1867110660"/>
		<tag k="addr:city" v="Cкoпje"/>
		<tag k="addr:city:en" v="Skopje"/>
		<tag k="addr:country" v="MK"/>
		<tag k="addr:housenumber" v="11"/>
		<tag k="addr:postcode" v="1000"/>
		<tag k="addr:street" v="Никола Тесла"/>
		<tag k="addr:street:en" v="Nikola Tesla"/>
		<tag k="amenity" v="restaurant"/>
		<tag k="building" v="commercial"/>
		<tag k="cuisine" v="regional"/>
		<tag k="email" v="gostilnica_lira@t-home.mk"/>
		<tag k="int_name" v="Lira"/>
		<tag k="internet_access" v="wlan"/>
		<tag k="name" v="Лира"/>
		<tag k="name:en" v="Lyre"/>
		<tag k="opening_hours" v="09:00-24:00, Fr-Sa 09:00-01:00"/>
		<tag k="outdoor_seating" v="yes"/>
		<tag k="payment:american_express" v="yes"/>
		<tag k="payment:coins" v="yes"/>
		<tag k="payment:diners_club" v="yes"/>
		<tag k="payment:maestro" v="yes"/>
		<tag k="payment:mastercard" v="yes"/>
		<tag k="payment:notes" v="yes"/>
		<tag k="payment:visa" v="yes"/>
		<tag k="phone" v="+389 2 3061726"/>
		<tag k="smoking" v="separated"/>
		<tag k="website" v="http://www.lyra.com.mk/"/>
	</way>
	<way id="176159879" version="4" timestamp="2019-06-08T14:01:45Z" changeset="71051705" uid="158784" user="bjankuloski">
		<nd ref="1867151643"/>
		<nd ref="1867151645"/>
		<nd ref="1867151650"/>
		<nd ref="1867151651"/>
		<nd ref="1867151643"/>
		<tag k="addr:city" v="Cкoпje"/>
		<tag k="addr:city:en" v="Skopje"/>
		<tag k="addr:country" v="MK"/>
		<tag k="addr:housenumber" v="14"/>
		<tag k="addr:postcode" v="1000"/>
		<tag k="addr:street" v="Пајко Маало"/>
		<tag k="amenity" v="restaurant"/>
		<tag k="building" v="yes"/>
		<tag k="cuisine" v="regional"/>
		<tag k="fax" v="+389 2 3119668"/>
		<tag k="int_name" v="Restoran Stara Kuka"/>
		<tag k="name" v="Стара куќа"/>
		<tag k="name:en" v="Old House Restaurant"/>
		<tag k="outdoor_seating" v="yes"/>
		<tag k="phone" v="+389 2 3131376"/>
		<tag k="smoking" v="separated"/>
		<tag k="website" v="http://starakuka.com.mk/"/>
		<tag k="wheelchair" v="yes"/>
	</way>
	<way id="176328169" version="4" timestamp="2015-12-21T19:00:03Z" changeset="36092764" uid="344903" user="Toyota_79">
		<nd ref="1868667689"/>
		<nd ref="1868667690"/>
		<nd ref="1868667681"/>
		<nd ref="1868667675"/>
		<nd ref="1868667682"/>
		<nd ref="1868667683"/>
		<nd ref="1868667686"/>
		<nd ref="1868667688"/>
		<nd ref="1868667678"/>
		<nd ref="1868667685"/>
		<nd ref="1868667687"/>
		<nd ref="3903403861"/>
		<nd ref="1868667684"/>
		<nd ref="3903403860"/>
		<nd ref="1868667689"/>
		<tag k="addr:city" v="Cкoпje"/>
		<tag k="addr:city:en" v="Skopje"/>
		<tag k="addr:country" v="MK"/>
		<tag k="addr:postcode" v="1000"/>
		<tag k="amenity" v="restaurant"/>
		<tag k="building" v="commercial"/>
		<tag k="cuisine" v="regional"/>
		<tag k="int_name" v="Balkanika"/>
		<tag k="name" v="Балканика"/>
		<tag k="smoking" v="separated"/>
	</way>
	<way id="176331794" version="4" timestamp="2019-05-16T12:44:26Z" changeset="70317238" uid="158784" user="bjankuloski">
		<nd ref="459667519"/>
		<nd ref="1868702009"/>
		<nd ref="1868701938"/>
		<nd ref="1868701976"/>
		<nd ref="459667519"/>
		<tag k="addr:city" v="Cкoпje"/>
		<tag k="addr:city:en" v="Skopje"/>
		<tag k="addr:country" v="MK"/>
		<tag k="addr:postcode" v="1000"/>
		<tag k="amenity" v="restaurant"/>
		<tag k="building" v="yes"/>
		<tag k="int_name" v="Uranija"/>
		<tag k="name" v="Уранија"/>
	</way>
	<way id="176448667" version="3" timestamp="2017-02-26T20:05:12Z" changeset="46424667" uid="4358750" user="mariegorman">
		<nd ref="2323355486"/>
		<nd ref="1869864172"/>
		<nd ref="1869864074"/>
		<nd ref="1869864310"/>
		<nd ref="2323355486"/>
		<tag k="addr:city" v="Cкoпje"/>
		<tag k="addr:city:en" v="Skopje"/>
		<tag k="addr:country" v="MK"/>
		<tag k="addr:postcode" v="1000"/>
		<tag k="amenity" v="restaurant"/>
		<tag k="building" v="yes"/>
		<tag k="cuisine" v="chinese"/>
		<tag k="name" v="Ѕвезден Океан"/>
		<tag k="name:en" v="Star Ocean"/>
	</way>
	<way id="177045374" version="4" timestamp="2018-05-16T13:20:53Z" changeset="59018080" uid="131662" user="borces">
		<nd ref="1875106820"/>
		<nd ref="1875106369"/>
		<nd ref="1875106649"/>
		<nd ref="5622136953"/>
		<nd ref="5622136957"/>
		<nd ref="5622136955"/>
		<nd ref="1875106638"/>
		<nd ref="5622136948"/>
		<nd ref="5622136952"/>
		<nd ref="5622136958"/>
		<nd ref="5622136949"/>
		<nd ref="1875106820"/>
		<tag k="addr:city" v="Cкoпje"/>
		<tag k="addr:city:en" v="Skopje"/>
		<tag k="addr:country" v="MK"/>
		<tag k="addr:postcode" v="1000"/>
		<tag k="addr:street" v="Булевар Илинден"/>
		<tag k="amenity" v="restaurant"/>
		<tag k="cuisine" v="regional"/>
		<tag k="name" v="Ресторан Маргер"/>
		<tag k="opening_hours" v="08:00-24:00, Fr-Sa 08:00-01:00"/>
		<tag k="payment:maestro" v="yes"/>
		<tag k="payment:mastercard" v="yes"/>
		<tag k="payment:visa" v="yes"/>
		<tag k="website" v="http://www.marger.com.mk"/>
		<tag k="wifi" v="free"/>
	</way>
	<way id="183590615" version="1" timestamp="2012-09-30T15:59:12Z" changeset="13311107" uid="131662" user="borces">
		<nd ref="1939982580"/>
		<nd ref="1939982578"/>
		<nd ref="1939982555"/>
		<nd ref="1939982577"/>
		<nd ref="1939982579"/>
		<nd ref="1939982553"/>
		<nd ref="1939982580"/>
		<tag k="amenity" v="restaurant"/>
		<tag k="cuisine" v="macedonian"/>
		<tag k="int_name" v="Nacionalen Restoran Čardak"/>
		<tag k="name" v="Национален Ресторан Чардак"/>
		<tag k="name:en" v="National Restaurant Chardak"/>
	</way>
	<way id="183593157" version="3" timestamp="2015-08-03T12:32:01Z" changeset="33068460" uid="1468248" user="TheBlackMan">
		<nd ref="1939991248"/>
		<nd ref="1939949653"/>
		<nd ref="1939949730"/>
		<nd ref="1939949406"/>
		<nd ref="1939950146"/>
		<nd ref="1939950192"/>
		<nd ref="2394840292"/>
		<nd ref="1939950144"/>
		<nd ref="1939949801"/>
		<nd ref="1939950098"/>
		<nd ref="1939950064"/>
		<nd ref="1939950114"/>
		<nd ref="1939991248"/>
		<tag k="amenity" v="restaurant"/>
		<tag k="cuisine" v="macedonian"/>
		<tag k="int_name" v="Vila Vesnica"/>
		<tag k="name" v="Вила Весница"/>
		<tag k="name:en" v="Vila Vesnica"/>
	</way>
	<way id="189975234" version="5" timestamp="2017-02-26T19:13:47Z" changeset="46423577" uid="4358750" user="mariegorman">
		<nd ref="2005843109"/>
		<nd ref="3861007622"/>
		<nd ref="3861007620"/>
		<nd ref="2005843205"/>
		<nd ref="2005843113"/>
		<nd ref="2005843099"/>
		<nd ref="2005843109"/>
		<tag k="addr:city" v="Cкoпje"/>
		<tag k="addr:city:en" v="Skopje"/>
		<tag k="addr:country" v="MK"/>
		<tag k="addr:postcode" v="1000"/>
		<tag k="amenity" v="restaurant"/>
		<tag k="building" v="yes"/>
		<tag k="name:en" v="Cafe Gorki"/>
	</way>
	<way id="236539239" version="3" timestamp="2015-07-11T09:32:04Z" changeset="32560858" uid="1468248" user="TheBlackMan">
		<nd ref="2445621590"/>
		<nd ref="2445621591"/>
		<nd ref="2445621592"/>
		<nd ref="2445621593"/>
		<nd ref="2445621590"/>
		<tag k="addr:city" v="Cкoпje"/>
		<tag k="addr:city:en" v="Skopje"/>
		<tag k="addr:country" v="MK"/>
		<tag k="addr:postcode" v="1000"/>
		<tag k="amenity" v="restaurant"/>
		<tag k="building" v="yes"/>
		<tag k="name" v="Рулет"/>
	</way>
	<way id="248508284" version="4" timestamp="2017-02-26T18:12:09Z" changeset="46422210" uid="4358750" user="mariegorman">
		<nd ref="2552845225"/>
		<nd ref="2323346377"/>
		<nd ref="2552845156"/>
		<nd ref="2552845237"/>
		<nd ref="2552845262"/>
		<nd ref="2552845143"/>
		<nd ref="4128439199"/>
		<nd ref="2552845225"/>
		<tag k="addr:city" v="Cкoпje"/>
		<tag k="addr:city:en" v="Skopje"/>
		<tag k="addr:country" v="MK"/>
		<tag k="addr:postcode" v="1000"/>
		<tag k="amenity" v="restaurant"/>
		<tag k="building" v="yes"/>
		<tag k="name" v="Sopotsko"/>
	</way>
	<way id="263871750" version="1" timestamp="2014-02-28T22:15:30Z" changeset="20836291" uid="344903" user="Toyota_79">
		<nd ref="2695392363"/>
		<nd ref="2695392364"/>
		<nd ref="2695392362"/>
		<nd ref="2695392361"/>
		<nd ref="2695392363"/>
		<tag k="amenity" v="restaurant"/>
		<tag k="building" v="yes"/>
		<tag k="name" v="Doma"/>
	</way>
	<way id="279392654" version="2" timestamp="2015-07-11T19:00:15Z" changeset="32568965" uid="1468248" user="TheBlackMan">
		<nd ref="2836006284"/>
		<nd ref="2836006285"/>
		<nd ref="2836006286"/>
		<nd ref="2836006287"/>
		<nd ref="2836006284"/>
		<tag k="addr:city" v="Cкoпje"/>
		<tag k="addr:city:en" v="Skopje"/>
		<tag k="addr:country" v="MK"/>
		<tag k="addr:postcode" v="1000"/>
		<tag k="amenity" v="restaurant"/>
		<tag k="building" v="yes"/>
		<tag k="cuisine" v="regional"/>
		<tag k="name" v="Kуќа"/>
	</way>
	<way id="305533452" version="3" timestamp="2017-09-04T08:36:49Z" changeset="51711178" uid="6594175" user="Lauri Vihma">
		<nd ref="3101725383"/>
		<nd ref="3101725384"/>
		<nd ref="3101725389"/>
		<nd ref="3101725385"/>
		<nd ref="3101725386"/>
		<nd ref="3101725383"/>
		<tag k="addr:city" v="Cкoпje"/>
		<tag k="addr:city:en" v="Skopje"/>
		<tag k="addr:country" v="MK"/>
		<tag k="addr:housenumber" v="36"/>
		<tag k="addr:postcode" v="1000"/>
		<tag k="addr:street" v="Кеј 13 Ноември"/>
		<tag k="amenity" v="restaurant"/>
		<tag k="building" v="yes"/>
		<tag k="name" v="Ресторан Кej"/>
		<tag k="name:en" v="Restoran Kej"/>
	</way>
	<way id="305647156" version="4" timestamp="2018-12-05T11:27:17Z" changeset="65198115" uid="480208" user="Svetle">
		<nd ref="3103097500"/>
		<nd ref="3103097501"/>
		<nd ref="3103097502"/>
		<nd ref="3103097503"/>
		<nd ref="3103097500"/>
		<tag k="addr:city" v="Cкoпje"/>
		<tag k="addr:city:en" v="Skopje"/>
		<tag k="addr:country" v="MK"/>
		<tag k="addr:housenumber" v="4"/>
		<tag k="addr:postcode" v="1000"/>
		<tag k="addr:street" v="Адолф Циборовски"/>
		<tag k="amenity" v="restaurant"/>
		<tag k="building" v="yes"/>
		<tag k="cuisine" v="regional;pizza"/>
		<tag k="name" v="Бравос"/>
	</way>
	<way id="332382509" version="3" timestamp="2017-02-27T13:18:35Z" changeset="46442216" uid="4358750" user="mariegorman">
		<nd ref="3484100382"/>
		<nd ref="3395009515"/>
		<nd ref="1866027761"/>
		<nd ref="3484100381"/>
		<nd ref="3484100382"/>
		<tag k="addr:city" v="Cкoпje"/>
		<tag k="addr:city:en" v="Skopje"/>
		<tag k="addr:country" v="MK"/>
		<tag k="addr:postcode" v="1000"/>
		<tag k="amenity" v="restaurant"/>
		<tag k="building" v="yes"/>
		<tag k="cuisine" v="regional"/>
		<tag k="name" v="Od Nas Za Vas"/>
		<tag k="takeaway" v="yes"/>
	</way>
	<way id="344078719" version="5" timestamp="2019-06-14T08:14:38Z" changeset="71243679" uid="6970734" user="Dekacc">
		<nd ref="3508369998"/>
		<nd ref="6546959169"/>
		<nd ref="6546959170"/>
		<nd ref="3508369999"/>
		<nd ref="3508366000"/>
		<nd ref="3508365499"/>
		<nd ref="3508369998"/>
		<tag k="addr:city" v="Cкoпje"/>
		<tag k="addr:city:en" v="Skopje"/>
		<tag k="addr:country" v="MK"/>
		<tag k="addr:housenumber" v="70"/>
		<tag k="addr:postcode" v="1000"/>
		<tag k="addr:street" v="Варшавска"/>
		<tag k="amenity" v="restaurant"/>
		<tag k="building" v="commercial"/>
		<tag k="building:levels" v="2"/>
		<tag k="cuisine" v="regional"/>
		<tag k="email" v="info@skarabar.mk"/>
		<tag k="int_name" v="Skara Bar"/>
		<tag k="name" v="Скара Бар"/>
		<tag k="opening_hours" v="08:00-24:00"/>
		<tag k="outdoor_seating" v="yes"/>
		<tag k="phone" v="+389 75 727110"/>
		<tag k="smoking" v="separated"/>
		<tag k="website" v="http://skarabar.mk/"/>
		<tag k="wheelchair" v="yes"/>
	</way>
	<way id="357827837" version="4" timestamp="2016-04-16T17:48:10Z" changeset="38628030" uid="1468248" user="TheBlackMan">
		<nd ref="3629466115"/>
		<nd ref="3629444920"/>
		<nd ref="3629442362"/>
		<nd ref="3629445633"/>
		<nd ref="3629445632"/>
		<nd ref="3629442712"/>
		<nd ref="3629444919"/>
		<nd ref="3629466115"/>
		<tag k="addr:city" v="Cкoпje"/>
		<tag k="addr:city:en" v="Skopje"/>
		<tag k="addr:country" v="MK"/>
		<tag k="addr:postcode" v="1000"/>
		<tag k="amenity" v="restaurant"/>
		<tag k="building" v="yes"/>
		<tag k="cuisine" v="italian"/>
		<tag k="name" v="Воденица"/>
		<tag k="name:en" v="Vodenica Mulino"/>
		<tag k="website" v="www.vodenicamulino.com.mk"/>
	</way>
	<way id="357827839" version="3" timestamp="2017-05-23T20:32:45Z" changeset="48927974" uid="4709387" user="Marquezzo">
		<nd ref="3629444921"/>
		<nd ref="3629442362"/>
		<nd ref="3629444920"/>
		<nd ref="3629442283"/>
		<nd ref="3629466116"/>
		<nd ref="3629445635"/>
		<nd ref="3629445634"/>
		<nd ref="3629444921"/>
		<tag k="addr:city" v="Cкoпje"/>
		<tag k="addr:city:en" v="Skopje"/>
		<tag k="addr:country" v="MK"/>
		<tag k="addr:housenumber" v="79"/>
		<tag k="addr:postcode" v="1000"/>
		<tag k="addr:street" v="Митрополит Теодосиј Гологанов"/>
		<tag k="addr:street:en" v="Mitroplit Teodosij Gologanov"/>
		<tag k="amenity" v="restaurant"/>
		<tag k="building" v="yes"/>
		<tag k="cuisine" v="regional"/>
		<tag k="email" v="gostilnicadukat@gmail.com"/>
		<tag k="name" v="Дукат"/>
		<tag k="name:en" v="Gostilnica Dukat"/>
		<tag k="opening_hours" v="Mo-Fr 08:00-24:00; Sa,Su 00:00-01:00,08:00-24:00"/>
		<tag k="outdoor_seating" v="yes"/>
		<tag k="payment:coins" v="yes"/>
		<tag k="payment:diners_club" v="yes"/>
		<tag k="payment:maestro" v="yes"/>
		<tag k="payment:mastercard" v="yes"/>
		<tag k="payment:notes" v="yes"/>
		<tag k="payment:visa" v="yes"/>
		<tag k="phone" v="+389 2 3211011"/>
		<tag k="smoking" v="separated"/>
	</way>
	<way id="358611648" version="4" timestamp="2016-12-18T14:04:14Z" changeset="44492338" uid="1836257" user="filipgd1">
		<nd ref="3635145298"/>
		<nd ref="3635130308"/>
		<nd ref="3635130196"/>
		<nd ref="3635145507"/>
		<nd ref="3635145298"/>
		<tag k="addr:city" v="Cкoпje"/>
		<tag k="addr:city:en" v="Skopje"/>
		<tag k="addr:country" v="MK"/>
		<tag k="addr:postcode" v="1000"/>
		<tag k="addr:street" v="Лондонска"/>
		<tag k="amenity" v="restaurant"/>
		<tag k="building" v="yes"/>
		<tag k="building:levels" v="1"/>
		<tag k="cuisine" v="regional"/>
		<tag k="name" v="Ресторан 14"/>
		<tag k="name:en" v="Restaurant 14"/>
		<tag k="phone" v="+389 2 3076411"/>
		<tag k="smoking" v="outside"/>
		<tag k="website" v="http://www.restoran14.com.mk/"/>
	</way>
	<way id="360117574" version="2" timestamp="2016-10-24T18:47:44Z" changeset="43133809" uid="344903" user="Toyota_79">
		<nd ref="373804534"/>
		<nd ref="3647185694"/>
		<nd ref="373804537"/>
		<nd ref="440613924"/>
		<nd ref="373804534"/>
		<tag k="addr:city" v="Cкoпje"/>
		<tag k="addr:city:en" v="Skopje"/>
		<tag k="addr:country" v="MK"/>
		<tag k="addr:postcode" v="1000"/>
		<tag k="amenity" v="restaurant"/>
		<tag k="building" v="commercial"/>
		<tag k="cuisine" v="regional"/>
		<tag k="int_name" v="Den i Nok"/>
		<tag k="name" v="Ден и Ноќ"/>
		<tag k="name:en" v="Day and Night"/>
		<tag k="website" v="http://www.replek.com.mk/DeniNok/zaNas.htm"/>
	</way>
	<way id="361977245" version="4" timestamp="2016-10-06T09:33:37Z" changeset="42679109" uid="282726" user="kaiD">
		<nd ref="3663796405"/>
		<nd ref="3663796406"/>
		<nd ref="3663796407"/>
		<nd ref="3663796408"/>
		<nd ref="4434038380"/>
		<nd ref="3663796409"/>
		<nd ref="4434038385"/>
		<nd ref="3663796410"/>
		<nd ref="3663796405"/>
		<tag k="addr:city" v="Cкoпje"/>
		<tag k="addr:city:en" v="Skopje"/>
		<tag k="addr:country" v="MK"/>
		<tag k="addr:housenumber" v="34"/>
		<tag k="addr:postcode" v="1000"/>
		<tag k="addr:street" v="Партенија Зографски"/>
		<tag k="amenity" v="restaurant"/>
		<tag k="building" v="yes"/>
		<tag k="cuisine" v="regional"/>
		<tag k="name" v="Корнер / Баба Цана"/>
		<tag k="name:en" v="Korner / Baba Cana"/>
		<tag k="opening_hours" v="08:00 - 00:00"/>
		<tag k="phone" v="02 312 6390 - 070/386-589"/>
	</way>
	<way id="363752338" version="4" timestamp="2019-02-19T22:40:56Z" changeset="67370606" uid="8600365" user="spuddy93">
		<nd ref="3678871841"/>
		<nd ref="3678871629"/>
		<nd ref="3678872133"/>
		<nd ref="3678872134"/>
		<nd ref="3678871841"/>
		<tag k="addr:city" v="Cкoпje"/>
		<tag k="addr:country" v="MK"/>
		<tag k="addr:housenumber" v="51"/>
		<tag k="addr:postcode" v="1000"/>
		<tag k="addr:street" v="Дебарца"/>
		<tag k="amenity" v="restaurant"/>
		<tag k="building" v="yes"/>
		<tag k="cuisine" v="regional"/>
		<tag k="name" v="Skopski Merak"/>
		<tag k="opening_hours" v="Mo-Su 00:00-01:00,08:00-24:00"/>
		<tag k="outdoor_seating" v="yes"/>
		<tag k="smoking" v="separated"/>
		<tag k="website" v="http://www.skopskimerak.mk/"/>
	</way>
	<way id="364669936" version="1" timestamp="2015-08-08T16:51:52Z" changeset="33204721" uid="344903" user="Toyota_79">
		<nd ref="3687134930"/>
		<nd ref="3687134932"/>
		<nd ref="3687134931"/>
		<nd ref="3687134929"/>
		<nd ref="3687134930"/>
		<tag k="amenity" v="restaurant"/>
		<tag k="building" v="yes"/>
		<tag k="cuisine" v="regional"/>
		<tag k="int_name" v="Kulla Alinea"/>
		<tag k="name" v="Kulla Alinea"/>
		<tag k="outdoor_seating" v="yes"/>
	</way>
	<way id="365998801" version="2" timestamp="2015-08-18T18:13:32Z" changeset="33422015" uid="344903" user="Toyota_79">
		<nd ref="3699924342"/>
		<nd ref="3699924341"/>
		<nd ref="3699924339"/>
		<nd ref="3699924340"/>
		<nd ref="3699924342"/>
		<tag k="amenity" v="restaurant"/>
		<tag k="building" v="yes"/>
		<tag k="name" v="Aktiva"/>
	</way>
	<way id="379884574" version="2" timestamp="2017-02-26T18:12:09Z" changeset="46422210" uid="4358750" user="mariegorman">
		<nd ref="3832333557"/>
		<nd ref="3832333559"/>
		<nd ref="3832333045"/>
		<nd ref="3832333047"/>
		<nd ref="3832333557"/>
		<tag k="addr:housenumber" v="14"/>
		<tag k="addr:street" v="Јордан Хаџиконстантинов Џинот"/>
		<tag k="amenity" v="restaurant"/>
		<tag k="building" v="yes"/>
		<tag k="name" v="Томче Софка"/>
		<tag k="name:en" v="Tomche Sofka"/>
		<tag k="tourism" v="hotel"/>
		<tag k="website" v="http://hotelimakedonija.com.mk/mk/Hotel/62/Hotel-Tomce-Sofka-Skopje"/>
	</way>
	<way id="379896010" version="2" timestamp="2017-02-26T15:46:44Z" changeset="46418619" uid="4358750" user="mariegorman">
		<nd ref="3832475129"/>
		<nd ref="3832475145"/>
		<nd ref="3832475144"/>
		<nd ref="3832475130"/>
		<nd ref="3832475129"/>
		<tag k="amenity" v="restaurant"/>
		<tag k="building" v="yes"/>
		<tag k="name" v="Калабалак"/>
	</way>
	<way id="388871332" version="3" timestamp="2016-09-19T09:53:11Z" changeset="42266019" uid="4472957" user="Ersan Halıcı">
		<nd ref="3920570915"/>
		<nd ref="3920570913"/>
		<nd ref="3920570902"/>
		<nd ref="3920570909"/>
		<nd ref="3920570915"/>
		<tag k="addr:city" v="Cкoпje"/>
		<tag k="addr:city:en" v="Skopje"/>
		<tag k="addr:country" v="MK"/>
		<tag k="addr:housenumber" v="22"/>
		<tag k="addr:postcode" v="1000"/>
		<tag k="addr:street" v="50-та дивизија"/>
		<tag k="addr:street:en" v="50 Divizija"/>
		<tag k="amenity" v="restaurant"/>
		<tag k="building" v="yes"/>
		<tag k="cuisine" v="regional"/>
		<tag k="email" v="contact@publicroom.org"/>
		<tag k="name" v="Јавна Соба"/>
		<tag k="name:en" v="Public Room"/>
		<tag k="name:nl" v="Open Huis"/>
		<tag k="name:tr" v="Public Room"/>
		<tag k="opening_hours" v="08:00-24:00"/>
		<tag k="phone" v="+389 2 6092650"/>
		<tag k="shop" v="art"/>
		<tag k="smoking" v="no"/>
		<tag k="website" v="http://publicroom.org/contact.html"/>
	</way>
	<way id="389881384" version="1" timestamp="2016-01-06T13:50:55Z" changeset="36403677" uid="344903" user="Toyota_79">
		<nd ref="3930413357"/>
		<nd ref="3930413359"/>
		<nd ref="3930412855"/>
		<nd ref="3930412852"/>
		<nd ref="3930413357"/>
		<tag k="amenity" v="restaurant"/>
		<tag k="building" v="yes"/>
		<tag k="cuisine" v="regional"/>
		<tag k="name" v="Rozenberg"/>
	</way>
	<way id="390108507" version="1" timestamp="2016-01-07T19:05:18Z" changeset="36431285" uid="344903" user="Toyota_79">
		<nd ref="3932711776"/>
		<nd ref="3932711774"/>
		<nd ref="3932711772"/>
		<nd ref="3932711773"/>
		<nd ref="3932711775"/>
		<nd ref="3932711776"/>
		<tag k="amenity" v="restaurant"/>
		<tag k="building" v="commercial"/>
		<tag k="cuisine" v="local"/>
		<tag k="name" v="Imperial"/>
	</way>
	<way id="397784875" version="2" timestamp="2019-03-23T20:37:34Z" changeset="68454686" uid="9451067" user="b-jazz-bot">
		<nd ref="4005704272"/>
		<nd ref="4005704277"/>
		<nd ref="4005704270"/>
		<nd ref="4005704263"/>
		<nd ref="4005704272"/>
		<tag k="access" v="private"/>
		<tag k="amenity" v="restaurant"/>
		<tag k="name" v="Регент Клуб"/>
		<tag k="name:en" v="Regent Club"/>
		<tag k="name:mk" v="Регент Клуб"/>
		<tag k="website" v="https://regentclub.com.mk/"/>
	</way>
	<way id="409026453" version="1" timestamp="2016-04-09T08:20:18Z" changeset="38423905" uid="1468248" user="TheBlackMan">
		<nd ref="4109201250"/>
		<nd ref="4109201248"/>
		<nd ref="4109201247"/>
		<nd ref="4109201249"/>
		<nd ref="4109201250"/>
		<tag k="addr:city" v="Cкoпje"/>
		<tag k="addr:city:en" v="Skopje"/>
		<tag k="addr:country" v="MK"/>
		<tag k="addr:postcode" v="1000"/>
		<tag k="addr:street" v="Париска"/>
		<tag k="addr:street:en" v="Pariska"/>
		<tag k="amenity" v="restaurant"/>
		<tag k="building" v="yes"/>
		<tag k="cuisine" v="regional"/>
		<tag k="email" v="info@olive.mk"/>
		<tag k="name" v="Restoran Olive"/>
		<tag k="opening_hours" v="Mo-Sa 09:00-24:00"/>
		<tag k="outdoor_seating" v="yes"/>
		<tag k="phone" v="+389 (0)2 3 06 66 23"/>
		<tag k="smoking" v="outside"/>
		<tag k="website" v="https://www.facebook.com/olive.skopje/"/>
		<tag k="wheelchair" v="yes"/>
	</way>
	<way id="410064786" version="1" timestamp="2016-04-13T16:27:31Z" changeset="38530504" uid="1468248" user="TheBlackMan">
		<nd ref="4119303021"/>
		<nd ref="4119303020"/>
		<nd ref="4119303018"/>
		<nd ref="4119303019"/>
		<nd ref="4119303021"/>
		<tag k="amenity" v="restaurant"/>
		<tag k="building" v="yes"/>
		<tag k="name" v="Фурна"/>
		<tag k="name:en" v="Furna"/>
	</way>
	<way id="415864951" version="1" timestamp="2016-05-05T20:17:04Z" changeset="39128952" uid="344903" user="Toyota_79">
		<nd ref="4168097993"/>
		<nd ref="4168097994"/>
		<nd ref="4168097991"/>
		<nd ref="4168097990"/>
		<nd ref="4168097993"/>
		<tag k="amenity" v="restaurant"/>
	</way>
	<way id="445237139" version="2" timestamp="2017-02-26T15:59:54Z" changeset="46418907" uid="4358750" user="mariegorman">
		<nd ref="4426902650"/>
		<nd ref="4426902645"/>
		<nd ref="4426902647"/>
		<nd ref="3832475131"/>
		<nd ref="4426902653"/>
		<nd ref="4426902650"/>
		<tag k="amenity" v="restaurant"/>
		<tag k="building" v="yes"/>
		<tag k="name" v="Ла Тана"/>
	</way>
	<way id="445237140" version="2" timestamp="2017-02-26T15:59:54Z" changeset="46418907" uid="4358750" user="mariegorman">
		<nd ref="3832475141"/>
		<nd ref="4426902658"/>
		<nd ref="4426902661"/>
		<nd ref="4426902662"/>
		<nd ref="4426902663"/>
		<nd ref="3832475141"/>
		<tag k="amenity" v="restaurant"/>
		<tag k="building" v="yes"/>
		<tag k="name" v="Амиго"/>
	</way>
	<way id="445237144" version="2" timestamp="2017-02-26T15:59:54Z" changeset="46418907" uid="4358750" user="mariegorman">
		<nd ref="4426902661"/>
		<nd ref="4426902658"/>
		<nd ref="4426902651"/>
		<nd ref="4426902656"/>
		<nd ref="4426902659"/>
		<nd ref="1860365659"/>
		<nd ref="4426902661"/>
		<tag k="amenity" v="restaurant"/>
		<tag k="building" v="yes"/>
		<tag k="cuisine" v="regional"/>
		<tag k="name" v="Кај Злате"/>
	</way>
	<way id="445837935" version="2" timestamp="2017-02-27T18:41:51Z" changeset="46448745" uid="4358750" user="mariegorman">
		<nd ref="1999321631"/>
		<nd ref="4431829369"/>
		<nd ref="4431829371"/>
		<nd ref="4431829370"/>
		<nd ref="1999321631"/>
		<tag k="alt_name" v="Galerija 7"/>
		<tag k="amenity" v="restaurant"/>
		<tag k="building" v="yes"/>
		<tag k="cuisine" v="turkish"/>
		<tag k="int_name" v="Galerry 7"/>
		<tag k="name" v="Галерија 7"/>
	</way>
	<way id="447904291" version="1" timestamp="2016-10-15T19:06:02Z" changeset="42923945" uid="344903" user="Toyota_79">
		<nd ref="4449620796"/>
		<nd ref="4449620798"/>
		<nd ref="4449620797"/>
		<nd ref="4449620795"/>
		<nd ref="4449620796"/>
		<tag k="amenity" v="restaurant"/>
		<tag k="building" v="yes"/>
		<tag k="cuisine" v="regional"/>
		<tag k="name" v="Black Pearl"/>
		<tag k="outdoor_seating" v="yes"/>
		<tag k="smoking" v="outside"/>
		<tag k="takeaway" v="no"/>
	</way>
	<way id="467607832" version="1" timestamp="2017-01-21T15:09:10Z" changeset="45351629" uid="4106193" user="BetaEng">
		<nd ref="4622063500"/>
		<nd ref="4622063501"/>
		<nd ref="4622063502"/>
		<nd ref="4622063503"/>
		<nd ref="4622063500"/>
		<tag k="addr:street" v="Сараевска"/>
		<tag k="amenity" v="restaurant"/>
		<tag k="building" v="yes"/>
		<tag k="name" v="Erdi"/>
	</way>
	<way id="467607833" version="1" timestamp="2017-01-21T15:09:10Z" changeset="45351629" uid="4106193" user="BetaEng">
		<nd ref="4622063504"/>
		<nd ref="4622063505"/>
		<nd ref="4622063506"/>
		<nd ref="4622063507"/>
		<nd ref="4622063504"/>
		<tag k="addr:street" v="Сараевска"/>
		<tag k="amenity" v="restaurant"/>
		<tag k="building" v="yes"/>
		<tag k="name" v="Vesa"/>
	</way>
	<way id="467607834" version="2" timestamp="2019-02-13T19:21:51Z" changeset="67173361" uid="9319448" user="Unicorn Ostrich">
		<nd ref="4622063508"/>
		<nd ref="4622063509"/>
		<nd ref="4622063510"/>
		<nd ref="4622063511"/>
		<nd ref="4622063508"/>
		<tag k="addr:street" v="Сараевска"/>
		<tag k="amenity" v="restaurant"/>
		<tag k="building" v="hotel"/>
		<tag k="name" v="Alba"/>
	</way>
	<way id="467607835" version="1" timestamp="2017-01-21T15:09:10Z" changeset="45351629" uid="4106193" user="BetaEng">
		<nd ref="4622063512"/>
		<nd ref="4622063513"/>
		<nd ref="4622063514"/>
		<nd ref="4622063515"/>
		<nd ref="4622063512"/>
		<tag k="addr:street" v="Сараевска"/>
		<tag k="amenity" v="restaurant"/>
		<tag k="building" v="yes"/>
	</way>
	<way id="471096720" version="1" timestamp="2017-02-01T12:53:59Z" changeset="45715827" uid="4106193" user="BetaEng">
		<nd ref="4652622922"/>
		<nd ref="4652622923"/>
		<nd ref="4652622924"/>
		<nd ref="4652622925"/>
		<nd ref="4652622922"/>
		<tag k="amenity" v="restaurant"/>
		<tag k="building" v="yes"/>
		<tag k="name" v="Dielli"/>
	</way>
	<way id="471105231" version="1" timestamp="2017-02-01T13:24:36Z" changeset="45716585" uid="4106193" user="BetaEng">
		<nd ref="4652709765"/>
		<nd ref="4652709766"/>
		<nd ref="4652709767"/>
		<nd ref="4652709768"/>
		<nd ref="4652709765"/>
		<tag k="addr:street" v="Пере Тошев"/>
		<tag k="amenity" v="restaurant"/>
		<tag k="building" v="yes"/>
		<tag k="name" v="Golden Mili"/>
	</way>
	<way id="474873952" version="4" timestamp="2019-05-25T22:52:02Z" changeset="70620946" uid="158784" user="bjankuloski">
		<nd ref="1810967608"/>
		<nd ref="4687349433"/>
		<nd ref="4687349434"/>
		<nd ref="4687349435"/>
		<nd ref="4687349436"/>
		<nd ref="4687349437"/>
		<nd ref="1810967608"/>
		<tag k="alt_name" v="Жабарот"/>
		<tag k="amenity" v="restaurant"/>
		<tag k="building" v="yes"/>
		<tag k="name" v="Кај Жабарот"/>
	</way>
	<way id="476186155" version="1" timestamp="2017-02-22T00:27:51Z" changeset="46291319" uid="4358750" user="mariegorman">
		<nd ref="4698270480"/>
		<nd ref="4386329258"/>
		<nd ref="4698270479"/>
		<nd ref="4698270478"/>
		<nd ref="4698270480"/>
		<tag k="amenity" v="restaurant"/>
		<tag k="building" v="yes"/>
		<tag k="cuisine" v="regional"/>
		<tag k="delivery" v="no"/>
		<tag k="name" v="Гостилница Мерак"/>
		<tag k="takeaway" v="no"/>
	</way>
	<way id="477026719" version="1" timestamp="2017-02-24T21:47:02Z" changeset="46380915" uid="2127961" user="BrookeEHarding">
		<nd ref="2717099203"/>
		<nd ref="3427393078"/>
		<nd ref="4704377563"/>
		<nd ref="2717099200"/>
		<nd ref="2717099203"/>
		<tag k="amenity" v="restaurant"/>
		<tag k="capacity" v="30"/>
		<tag k="cuisine" v="regional"/>
		<tag k="delivery" v="no"/>
		<tag k="name" v="Читална"/>
		<tag k="name:en" v="Chitalna"/>
		<tag k="smoking" v="outside"/>
	</way>
	<way id="477026724" version="1" timestamp="2017-02-24T21:47:02Z" changeset="46380915" uid="2127961" user="BrookeEHarding">
		<nd ref="4704379091"/>
		<nd ref="4704379090"/>
		<nd ref="4704379089"/>
		<nd ref="796178301"/>
		<nd ref="4704379091"/>
		<tag k="amenity" v="restaurant"/>
		<tag k="cuisine" v="regional"/>
		<tag k="int_name" v="Cardak"/>
		<tag k="name" v="цардак"/>
		<tag k="name:en" v="Cardak"/>
		<tag k="outdoor_seating" v="yes"/>
	</way>
	<way id="477325813" version="2" timestamp="2018-05-18T10:59:46Z" changeset="59076210" uid="131662" user="borces">
		<nd ref="4706991214"/>
		<nd ref="4706991213"/>
		<nd ref="1928095824"/>
		<nd ref="1373103651"/>
		<nd ref="4706991214"/>
		<tag k="amenity" v="restaurant"/>
		<tag k="building" v="yes"/>
		<tag k="int_name" v="Naša Sofra"/>
		<tag k="is_in" v="Скопје"/>
		<tag k="name" v="Наша софра"/>
		<tag k="name:en" v="Nasha Sofra"/>
		<tag k="old_name" v="стоби"/>
	</way>
	<way id="477325815" version="1" timestamp="2017-02-26T17:51:25Z" changeset="46421642" uid="4358750" user="mariegorman">
		<nd ref="4706991220"/>
		<nd ref="4706991219"/>
		<nd ref="4706991218"/>
		<nd ref="418875414"/>
		<nd ref="4706991220"/>
		<tag k="amenity" v="restaurant"/>
		<tag k="building" v="yes"/>
		<tag k="name" v="Дебар Маало"/>
	</way>
	<way id="477325816" version="4" timestamp="2019-03-01T16:52:42Z" changeset="67692616" uid="4240913" user="Corban8">
		<nd ref="1373110858"/>
		<nd ref="4706991223"/>
		<nd ref="5626433464"/>
		<nd ref="5626433485"/>
		<nd ref="4706991222"/>
		<nd ref="4706991221"/>
		<nd ref="1373110858"/>
		<tag k="addr:city" v="Cкoпje"/>
		<tag k="addr:city:en" v="Skopje"/>
		<tag k="addr:country" v="MK"/>
		<tag k="addr:housenumber" v="3"/>
		<tag k="addr:postcode" v="1000"/>
		<tag k="addr:street" v="Отон Жупанчич"/>
		<tag k="amenity" v="restaurant"/>
		<tag k="building" v="yes"/>
		<tag k="cuisine" v="regional"/>
		<tag k="email" v="gurmet@restorani.com.mk"/>
		<tag k="int_name" v="Gurmet"/>
		<tag k="name" v="Гурмет"/>
		<tag k="opening_hours" v="09:00-24:00, Fr-Sa 09:00-01:00"/>
		<tag k="payment:maestro" v="yes"/>
		<tag k="payment:mastercard" v="yes"/>
		<tag k="payment:visa" v="yes"/>
	</way>
	<way id="477325818" version="2" timestamp="2019-02-27T13:22:43Z" changeset="67617675" uid="480208" user="Svetle">
		<nd ref="4706991229"/>
		<nd ref="1373110836"/>
		<nd ref="4706991228"/>
		<nd ref="4706991227"/>
		<nd ref="4706991229"/>
		<tag k="addr:city" v="Cкoпje"/>
		<tag k="addr:housenumber" v="87"/>
		<tag k="addr:postcode" v="1000"/>
		<tag k="addr:street" v="Мирослав Крлежа"/>
		<tag k="amenity" v="restaurant"/>
		<tag k="building" v="yes"/>
		<tag k="name" v="Наџак"/>
	</way>
	<way id="477325825" version="2" timestamp="2019-12-02T19:01:51Z" changeset="77838965" uid="10517616" user="DemonHyper">
		<nd ref="4706991250"/>
		<nd ref="4706991249"/>
		<nd ref="4706991248"/>
		<nd ref="1138894760"/>
		<nd ref="4706991250"/>
		<tag k="alt_name" v="Канцеларија"/>
		<tag k="amenity" v="restaurant"/>
		<tag k="building" v="yes"/>
		<tag k="int_name" v="Kancelarija"/>
		<tag k="name" v="Kancelarija"/>
		<tag k="name:mk" v="Канцеларија"/>
	</way>
	<way id="477325827" version="1" timestamp="2017-02-26T17:51:27Z" changeset="46421642" uid="4358750" user="mariegorman">
		<nd ref="4706991255"/>
		<nd ref="4706991254"/>
		<nd ref="4706991253"/>
		<nd ref="2411332043"/>
		<nd ref="4706991255"/>
		<tag k="amenity" v="restaurant"/>
		<tag k="building" v="yes"/>
		<tag k="int_name" v="Čamo"/>
		<tag k="name" v="Чамо"/>
		<tag k="name:en" v="Chamo"/>
	</way>
	<way id="477325830" version="2" timestamp="2019-03-01T16:52:42Z" changeset="67692616" uid="4240913" user="Corban8">
		<nd ref="4706991264"/>
		<nd ref="4706991262"/>
		<nd ref="4706991263"/>
		<nd ref="1577162234"/>
		<nd ref="4706991264"/>
		<tag k="addr:housenumber" v="4"/>
		<tag k="addr:street" v="Ѓорѓи Пешков"/>
		<tag k="alt_name" v="Ганза"/>
		<tag k="amenity" v="restaurant"/>
		<tag k="building" v="yes"/>
		<tag k="int_name" v="Ganza"/>
		<tag k="name" v="Ganza"/>
	</way>
	<way id="477325836" version="3" timestamp="2019-02-19T22:40:57Z" changeset="67370606" uid="8600365" user="spuddy93">
		<nd ref="3779543187"/>
		<nd ref="4706991280"/>
		<nd ref="4706991281"/>
		<nd ref="4706991282"/>
		<nd ref="3779543187"/>
		<tag k="addr:city" v="Cкoпje"/>
		<tag k="addr:country" v="MK"/>
		<tag k="addr:housenumber" v="53"/>
		<tag k="addr:postcode" v="1000"/>
		<tag k="addr:street" v="Дебарца"/>
		<tag k="amenity" v="restaurant"/>
		<tag k="building" v="yes"/>
		<tag k="cuisine" v="regional"/>
		<tag k="name" v="Antica"/>
		<tag k="outdoor_seating" v="yes"/>
	</way>
	<way id="477540171" version="2" timestamp="2019-09-10T10:12:15Z" changeset="74300544" uid="131662" user="borces">
		<nd ref="4708726932"/>
		<nd ref="4708726931"/>
		<nd ref="470920215"/>
		<nd ref="4708726930"/>
		<nd ref="4708726932"/>
		<tag k="amenity" v="restaurant"/>
		<tag k="building" v="yes"/>
		<tag k="name" v="Кремисимо 2"/>
		<tag k="old_name" v="Смок"/>
	</way>
	<way id="482846770" version="2" timestamp="2018-05-18T10:59:45Z" changeset="59076210" uid="131662" user="borces">
		<nd ref="4706991280"/>
		<nd ref="4756328635"/>
		<nd ref="4756328633"/>
		<nd ref="4756328634"/>
		<nd ref="4706991281"/>
		<nd ref="4706991280"/>
		<tag k="amenity" v="restaurant"/>
		<tag k="leisure" v="outdoor_seating"/>
		<tag k="operator" v="Antica"/>
	</way>
	<way id="496423190" version="2" timestamp="2020-10-26T12:11:47Z" changeset="93060647" uid="273212" user="Jakub Trojan">
		<nd ref="4881325500"/>
		<nd ref="4881325499"/>
		<nd ref="4881325495"/>
		<nd ref="4881325496"/>
		<nd ref="4881325500"/>
		<tag k="addr:street" v="Булевар 8-ми Септември"/>
		<tag k="amenity" v="restaurant"/>
		<tag k="building" v="roof"/>
		<tag k="cuisine" v="regional"/>
		<tag k="name" v="Bonimi"/>
		<tag k="name:en" v="Bonimi"/>
		<tag k="name:mk" v="Bonimi"/>
		<tag k="opening_hours" v="Mo-Su 20:00-24:00"/>
		<tag k="outdoor_seating" v="yes"/>
		<tag k="website" v="https://m.facebook.com/bonimimkd/"/>
	</way>
	<way id="496423192" version="2" timestamp="2020-10-26T12:11:47Z" changeset="93060647" uid="273212" user="Jakub Trojan">
		<nd ref="4881325502"/>
		<nd ref="4881325501"/>
		<nd ref="4881325497"/>
		<nd ref="4881325498"/>
		<nd ref="4881325502"/>
		<tag k="addr:city" v="Cкoпje"/>
		<tag k="addr:housenumber" v="18"/>
		<tag k="addr:postcode" v="1000"/>
		<tag k="addr:street" v="Булевар 8-ми Септември"/>
		<tag k="amenity" v="restaurant"/>
		<tag k="building" v="roof"/>
		<tag k="name" v="Барбакан"/>
		<tag k="name:en" v="Barbakan"/>
		<tag k="opening_hours" v="08:00-01:00"/>
		<tag k="outdoor_seating" v="yes"/>
	</way>
	<way id="547074226" version="1" timestamp="2017-12-15T15:41:03Z" changeset="54656948" uid="6970734" user="Dekacc">
		<nd ref="5286112836"/>
		<nd ref="5286112837"/>
		<nd ref="5286112838"/>
		<nd ref="5286112839"/>
		<nd ref="5286112836"/>
		<tag k="amenity" v="restaurant"/>
		<tag k="building" v="yes"/>
		<tag k="name" v="4 Angeli"/>
	</way>
	<way id="674116575" version="2" timestamp="2019-03-02T19:31:15Z" changeset="67721894" uid="480208" user="Svetle">
		<nd ref="6313032527"/>
		<nd ref="6313032528"/>
		<nd ref="6313032529"/>
		<nd ref="6313032530"/>
		<nd ref="6313032527"/>
		<tag k="addr:housenumber" v="89"/>
		<tag k="addr:street" v="Борис Трајковски"/>
		<tag k="amenity" v="restaurant"/>
		<tag k="building" v="yes"/>
		<tag k="name" v="Ваташа пекара"/>
	</way>
	<way id="674126648" version="1" timestamp="2019-03-02T20:59:57Z" changeset="67723564" uid="480208" user="Svetle">
		<nd ref="6313125750"/>
		<nd ref="6313125751"/>
		<nd ref="6313125752"/>
		<nd ref="6313125753"/>
		<nd ref="6313125750"/>
		<tag k="addr:housenumber" v="174 А"/>
		<tag k="addr:street" v="Борис Трајковски"/>
		<tag k="amenity" v="restaurant"/>
		<tag k="building" v="yes"/>
		<tag k="name" v="Везилка"/>
	</way>
	<way id="674126651" version="1" timestamp="2019-03-02T20:59:57Z" changeset="67723564" uid="480208" user="Svetle">
		<nd ref="6313125755"/>
		<nd ref="6313125756"/>
		<nd ref="6313125757"/>
		<nd ref="6313125758"/>
		<nd ref="6313125755"/>
		<tag k="addr:housenumber" v="174 А"/>
		<tag k="addr:street" v="Борис Трајковски"/>
		<tag k="amenity" v="restaurant"/>
		<tag k="building" v="yes"/>
		<tag k="name" v="Дениција"/>
	</way>
	<way id="686912550" version="1" timestamp="2019-04-30T15:22:07Z" changeset="69738994" uid="344903" user="Toyota_79">
		<nd ref="6439003802"/>
		<nd ref="6439003801"/>
		<nd ref="6439003800"/>
		<nd ref="6439003799"/>
		<nd ref="6439003802"/>
		<tag k="amenity" v="restaurant"/>
		<tag k="cuisine" v="regional"/>
		<tag k="microbrewery" v="yes"/>
		<tag k="nam:en" v="The Yellow Kombi"/>
		<tag k="name" v="Krcma Zuto Kombe"/>
		<tag k="operator" v="Temov Brewery"/>
		<tag k="outdoor_seating" v="yes"/>
		<tag k="phone" v="+389 76 462374"/>
		<tag k="smoking" v="outside"/>
		<tag k="website" v="http://www.temovbeer.com/"/>
	</way>
	<way id="829988369" version="1" timestamp="2020-07-25T12:01:49Z" changeset="88493628" uid="11547411" user="heey8th">
		<nd ref="7746515804"/>
		<nd ref="7746515805"/>
		<nd ref="7746515806"/>
		<nd ref="7746515807"/>
		<nd ref="7746515804"/>
		<tag k="amenity" v="restaurant"/>
		<tag k="building" v="yes"/>
	</way>
	<way id="838984538" version="1" timestamp="2020-08-20T11:09:46Z" changeset="89687302" uid="11675352" user="jdamjan">
		<nd ref="7829311097"/>
		<nd ref="7829311098"/>
		<nd ref="7829311099"/>
		<nd ref="7829311100"/>
		<nd ref="7829311097"/>
		<tag k="addr:city" v="Скопје"/>
		<tag k="addr:housenumber" v="6"/>
		<tag k="addr:postcode" v="1000"/>
		<tag k="addr:street" v="Тодор Чангов 20"/>
		<tag k="amenity" v="restaurant"/>
		<tag k="building" v="yes"/>
		<tag k="cuisine" v="regional"/>
		<tag k="name" v="Куц у Кец (Панда)"/>
	</way>
</osm>
